{
  "d": {
    "__type": "System.Data.DataSet",
    "provider_list": [
      {
        "Provider": null,
        "Name": "ACME PHARMACY #0237",
        "Store ID": "0237",
        "Address 1": "281 FERRY ST",
        "Address 2": "#295",
        "City": "NEWARK",
        "STATE": "NJ",
        "Zip": "07105",
        "Phone": "9735893392",
        "pid": 160595
      },
      {
        "Provider": null,
        "Name": "ACME PHARMACY #0291",
        "Store ID": "0291",
        "Address 1": "180 W GIRARD AVE",
        "Address 2": "",
        "City": "PHILADELPHIA",
        "STATE": "PA",
        "Zip": "191231660",
        "Phone": "2155741221",
        "pid": 160401
      },
      {
        "Provider": null,
        "Name": "ACME PHARMACY #0294",
        "Store ID": "0294",
        "Address 1": "5100 WELLINGTON AVENUE",
        "Address 2": "",
        "City": "VENTNOR",
        "STATE": "NJ",
        "Zip": "08406",
        "Phone": "6098230087",
        "pid": 160597
      },
      {
        "Provider": null,
        "Name": "ACME PHARMACY #0295",
        "Store ID": "0295",
        "Address 1": "5 ORTLEY PLAZA",
        "Address 2": "",
        "City": "SEASIDE HEIGHTS",
        "STATE": "NJ",
        "Zip": "08751",
        "Phone": "7328300800",
        "pid": 160589
      },
      {
        "Provider": null,
        "Name": "ACME PHARMACY #0299",
        "Store ID": "0299",
        "Address 1": "2101 COTTMAN AVE",
        "Address 2": "#41",
        "City": "PHILADELPHIA",
        "STATE": "PA",
        "Zip": "19149",
        "Phone": "2157281015",
        "pid": 160831
      },
      {
        "Provider": null,
        "Name": "ACME PHARMACY #0780",
        "Store ID": "0780",
        "Address 1": "2007 STATE RTE 35",
        "Address 2": "",
        "City": "WALL TOWNSHIP",
        "STATE": "NJ",
        "Zip": "07719",
        "Phone": "7322821634",
        "pid": 160592
      },
      {
        "Provider": null,
        "Name": "ACME PHARMACY #0896",
        "Store ID": "0896",
        "Address 1": "751 SOUTH SALISBURY BLVD",
        "Address 2": "",
        "City": "SALISBURY",
        "STATE": "MD",
        "Zip": "21801",
        "Phone": "4432602400",
        "pid": 163400
      },
      {
        "Provider": null,
        "Name": "ACME PHARMACY #1054",
        "Store ID": "1054",
        "Address 1": "136 LAKE AVE",
        "Address 2": "",
        "City": "MIDLAND PARK",
        "STATE": "NJ",
        "Zip": "07432",
        "Phone": "2014937055",
        "pid": 160174
      },
      {
        "Provider": null,
        "Name": "ACME PHARMACY #1058",
        "Store ID": "1058",
        "Address 1": "125 FRANKLIN TURNPIKE",
        "Address 2": "",
        "City": "MAHWAH",
        "STATE": "NJ",
        "Zip": "07430",
        "Phone": "2015299760",
        "pid": 160180
      },
      {
        "Provider": null,
        "Name": "ACME PHARMACY #1063",
        "Store ID": "1063",
        "Address 1": "3101 ROUTE 22",
        "Address 2": "",
        "City": "PATTERSON",
        "STATE": "NY",
        "Zip": "125632342",
        "Phone": "8458782055",
        "pid": 165803
      },
      {
        "Provider": null,
        "Name": "ACME PHARMACY #1065",
        "Store ID": "1065",
        "Address 1": "2160 LEMOINE AVE",
        "Address 2": "",
        "City": "FORT LEE",
        "STATE": "NJ",
        "Zip": "07024",
        "Phone": "2019441466",
        "pid": 160173
      },
      {
        "Provider": null,
        "Name": "ACME PHARMACY #1069",
        "Store ID": "1069",
        "Address 1": "520 CHESTNUT RIDGE RD",
        "Address 2": "",
        "City": "WOODCLIFF LAKE",
        "STATE": "NJ",
        "Zip": "07677",
        "Phone": "2014760045",
        "pid": 160177
      },
      {
        "Provider": null,
        "Name": "ACME PHARMACY #1077",
        "Store ID": "1077",
        "Address 1": "123 EAST MAIN ST",
        "Address 2": "STE 1",
        "City": "DENVILLE",
        "STATE": "NJ",
        "Zip": "07834",
        "Phone": "9735862217",
        "pid": 160181
      },
      {
        "Provider": null,
        "Name": "ACME PHARMACY #1083",
        "Store ID": "1083",
        "Address 1": "125 18TH ST",
        "Address 2": "",
        "City": "JERSEY CITY",
        "STATE": "NJ",
        "Zip": "07310",
        "Phone": "2014180585",
        "pid": 160590
      },
      {
        "Provider": null,
        "Name": "ACME PHARMACY #1092",
        "Store ID": "1092",
        "Address 1": "321 STATE RTE 440",
        "Address 2": "",
        "City": "JERSEY CITY",
        "STATE": "NJ",
        "Zip": "07305",
        "Phone": "2019462535",
        "pid": 160591
      },
      {
        "Provider": null,
        "Name": "ACME PHARMACY #1095",
        "Store ID": "1095",
        "Address 1": "45 DEMERCURIO DRIVE",
        "Address 2": "",
        "City": "ALLENDALE",
        "STATE": "NJ",
        "Zip": "07401",
        "Phone": "2019343333",
        "pid": 160176
      },
      {
        "Provider": null,
        "Name": "ACME PHARMACY #1096",
        "Store ID": "1096",
        "Address 1": "801 KENILWORTH BLVD",
        "Address 2": "",
        "City": "KENILWORTH",
        "STATE": "NJ",
        "Zip": "07033",
        "Phone": "9082590720",
        "pid": 160188
      },
      {
        "Provider": null,
        "Name": "ACME PHARMACY #1097",
        "Store ID": "1097",
        "Address 1": "907 OAK TREE RD",
        "Address 2": "STE D",
        "City": "SOUTH PLAINFIELD",
        "STATE": "NJ",
        "Zip": "07080",
        "Phone": "9088227220",
        "pid": 160187
      },
      {
        "Provider": null,
        "Name": "ACME PHARMACY #1099",
        "Store ID": "1099",
        "Address 1": "5774 BERKSHIRE VALLEY RD",
        "Address 2": "",
        "City": "OAK RIDGE",
        "STATE": "NJ",
        "Zip": "07438",
        "Phone": "9736973310",
        "pid": 160186
      },
      {
        "Provider": null,
        "Name": "ACME PHARMACY #1582",
        "Store ID": "1582",
        "Address 1": "550 MYRTLE AVE",
        "Address 2": "",
        "City": "BOONTON",
        "STATE": "NJ",
        "Zip": "070051914",
        "Phone": "9734024330",
        "pid": 163942
      },
      {
        "Provider": null,
        "Name": "ACME PHARMACY #1764",
        "Store ID": "1764",
        "Address 1": "510 VALLEY RD",
        "Address 2": "",
        "City": "MONTCLAIR",
        "STATE": "NJ",
        "Zip": "07043",
        "Phone": "9737460072",
        "pid": 160172
      },
      {
        "Provider": null,
        "Name": "ACME PHARMACY #1777",
        "Store ID": "1777",
        "Address 1": "481 RIVER RD",
        "Address 2": "",
        "City": "EDGEWATER",
        "STATE": "NJ",
        "Zip": "07020",
        "Phone": "2018407764",
        "pid": 160171
      },
      {
        "Provider": null,
        "Name": "ACME PHARMACY #1782",
        "Store ID": "1782",
        "Address 1": "1060 RARITAN RD",
        "Address 2": "",
        "City": "CLARK",
        "STATE": "NJ",
        "Zip": "07066",
        "Phone": "7323400081",
        "pid": 160182
      },
      {
        "Provider": null,
        "Name": "ACME PHARMACY #1787",
        "Store ID": "1787",
        "Address 1": "455 RTE 23",
        "Address 2": "",
        "City": "SUSSEX",
        "STATE": "NJ",
        "Zip": "07461",
        "Phone": "9737024025",
        "pid": 160185
      },
      {
        "Provider": null,
        "Name": "ACME PHARMACY #1851",
        "Store ID": "1851",
        "Address 1": "152 STATE RTE 94",
        "Address 2": "",
        "City": "BLAIRSTOWN",
        "STATE": "NJ",
        "Zip": "07825",
        "Phone": "9083621799",
        "pid": 160183
      },
      {
        "Provider": null,
        "Name": "ACME PHARMACY #1852",
        "Store ID": "1852",
        "Address 1": "199 KINDERKAMACK RD",
        "Address 2": "",
        "City": "PARK RIDGE",
        "STATE": "NJ",
        "Zip": "076561390",
        "Phone": "2013075751",
        "pid": 160178
      },
      {
        "Provider": null,
        "Name": "ACME PHARMACY #1856",
        "Store ID": "1856",
        "Address 1": "19 AVE AT PORT IMPERAL",
        "Address 2": "",
        "City": "WEST NEW YORK",
        "STATE": "NJ",
        "Zip": "07093",
        "Phone": "2015531035",
        "pid": 160170
      },
      {
        "Provider": null,
        "Name": "ACME PHARMACY #1893",
        "Store ID": "1893",
        "Address 1": "4100 PARK AVE",
        "Address 2": "",
        "City": "WEEHAWKEN",
        "STATE": "NJ",
        "Zip": "07086",
        "Phone": "2015836860",
        "pid": 160593
      },
      {
        "Provider": null,
        "Name": "ACME PHARMACY #1991",
        "Store ID": "1991",
        "Address 1": "80 NEW BRIDGE RD",
        "Address 2": "",
        "City": "BERGENFIELD",
        "STATE": "NJ",
        "Zip": "07621",
        "Phone": "2013850091",
        "pid": 160175
      },
      {
        "Provider": null,
        "Name": "ACME PHARMACY #1992",
        "Store ID": "1992",
        "Address 1": "75 MAYHILL STREET",
        "Address 2": "",
        "City": "SADDLE BROOK",
        "STATE": "NJ",
        "Zip": "07663",
        "Phone": "2017121138",
        "pid": 160179
      },
      {
        "Provider": null,
        "Name": "ACME PHARMACY #2411",
        "Store ID": "2411",
        "Address 1": "100 TRIANGLE CENER",
        "Address 2": "SAW MILL RIVER RD",
        "City": "YORKTOWN HGHTS",
        "STATE": "NY",
        "Zip": "10598",
        "Phone": "9144553820",
        "pid": 160367
      },
      {
        "Provider": null,
        "Name": "ACME PHARMACY #2418",
        "Store ID": "2418",
        "Address 1": "3105 EAST MAIN ST",
        "Address 2": "",
        "City": "MOHEGAN LAKE",
        "STATE": "NY",
        "Zip": "10547",
        "Phone": "9145266650",
        "pid": 160368
      },
      {
        "Provider": null,
        "Name": "ACME PHARMACY #2422",
        "Store ID": "2422",
        "Address 1": "1511 RTE 22",
        "Address 2": "",
        "City": "BREWSTER",
        "STATE": "NY",
        "Zip": "10509",
        "Phone": "8459400565",
        "pid": 160369
      },
      {
        "Provider": null,
        "Name": "ACME PHARMACY #2428",
        "Store ID": "2428",
        "Address 1": "829 RTE 82",
        "Address 2": "",
        "City": "HOPEWELL JUNCTION",
        "STATE": "NY",
        "Zip": "12533",
        "Phone": "8452270582",
        "pid": 160370
      },
      {
        "Provider": null,
        "Name": "ACME PHARMACY #2649",
        "Store ID": "2649",
        "Address 1": "800 WEST AVE",
        "Address 2": "",
        "City": "OCEAN CITY",
        "STATE": "NJ",
        "Zip": "08226",
        "Phone": "6098149790",
        "pid": 160598
      },
      {
        "Provider": null,
        "Name": "ACME PHARMACY #2679",
        "Store ID": "2679",
        "Address 1": "18578 COASTAL HWY",
        "Address 2": "STE 13",
        "City": "REHOBOTH BEACH",
        "STATE": "DE",
        "Zip": "19971",
        "Phone": "3026441903",
        "pid": 160457
      },
      {
        "Provider": null,
        "Name": "ACME PHARMACY #2680",
        "Store ID": "2680",
        "Address 1": "100 COLLEGE SQUARE",
        "Address 2": "",
        "City": "NEWARK",
        "STATE": "DE",
        "Zip": "19711",
        "Phone": "3022860415",
        "pid": 160458
      },
      {
        "Provider": null,
        "Name": "ACME PHARMACY #2682",
        "Store ID": "2682",
        "Address 1": "4365 KIRKWOOD HIGHWAY",
        "Address 2": "",
        "City": "WILMINGTON",
        "STATE": "DE",
        "Zip": "19808",
        "Phone": "3026361144",
        "pid": 160459
      },
      {
        "Provider": null,
        "Name": "ACME PHARMACY #2693",
        "Store ID": "2693",
        "Address 1": "643 CONCHESTER HWY",
        "Address 2": "",
        "City": "BOOTHWYN",
        "STATE": "PA",
        "Zip": "19061",
        "Phone": "6108590008",
        "pid": 160830
      },
      {
        "Provider": null,
        "Name": "ACME PHARMACY #2820",
        "Store ID": "2820",
        "Address 1": "530 COUNTY RTE 515",
        "Address 2": "UNIT 1",
        "City": "VERNON",
        "STATE": "NJ",
        "Zip": "07462",
        "Phone": "9737645380",
        "pid": 160184
      },
      {
        "Provider": null,
        "Name": "ACME PHARMACY #2823",
        "Store ID": "2823",
        "Address 1": "990 SHREWSBURY AVE",
        "Address 2": "",
        "City": "TINTON FALLS",
        "STATE": "NJ",
        "Zip": "07724",
        "Phone": "7323895670",
        "pid": 160596
      },
      {
        "Provider": null,
        "Name": "ACME PHARMACY #2827",
        "Store ID": "2827",
        "Address 1": "3500 US HWY 9",
        "Address 2": "",
        "City": "OLD BRIDGE",
        "STATE": "NJ",
        "Zip": "08857",
        "Phone": "7326079260",
        "pid": 160594
      },
      {
        "Provider": null,
        "Name": "ACME PHARMACY #2833",
        "Store ID": "2833",
        "Address 1": "7700 CRITTENDEN ST",
        "Address 2": "",
        "City": "PHILADELPHIA",
        "STATE": "PA",
        "Zip": "19118",
        "Phone": "2152486495",
        "pid": 160829
      },
      {
        "Provider": "BBBBBBB",
        "Name": "BBB",
        "Store ID": "",
        "Address 1": "",
        "Address 2": "",
        "City": "",
        "STATE": "  ",
        "Zip": "",
        "Phone": "1231231234",
        "pid": 166623
      },
      {
        "Provider": null,
        "Name": "OSCO DRUG",
        "Store ID": "3632",
        "Address 1": "3630 N SOUTHPORT AVE",
        "Address 2": "",
        "City": "CHICAGO",
        "STATE": "IL",
        "Zip": "606133710",
        "Phone": "7733271485",
        "pid": 134734
      },
      {
        "Provider": null,
        "Name": "OSCO DRUG",
        "Store ID": "2502",
        "Address 1": "2550 NORTH CLYBOURN AVE",
        "Address 2": "",
        "City": "CHICAGO",
        "STATE": "IL",
        "Zip": "60614",
        "Phone": "7733487421",
        "pid": 145243
      },
      {
        "Provider": null,
        "Name": "OSCO DRUG",
        "Store ID": "2506",
        "Address 1": "424 W DIVISION ST",
        "Address 2": "",
        "City": "CHICAGO",
        "STATE": "IL",
        "Zip": "606101727",
        "Phone": "3126422951",
        "pid": 145774
      },
      {
        "Provider": null,
        "Name": "OSCO DRUG",
        "Store ID": "2501",
        "Address 1": "1340 PATRIOT BLVD",
        "Address 2": "",
        "City": "GLENVIEW",
        "STATE": "IL",
        "Zip": "60025",
        "Phone": "8476579151",
        "pid": 147704
      },
      {
        "Provider": null,
        "Name": "OSCO DRUG",
        "Store ID": "2500",
        "Address 1": "1340 S CANAL STREET",
        "Address 2": "",
        "City": "CHICAGO",
        "STATE": "IL",
        "Zip": "60607",
        "Phone": "3126665612",
        "pid": 147705
      },
      {
        "Provider": null,
        "Name": "OSCO DRUG",
        "Store ID": "2503",
        "Address 1": "14200 S BELL RD",
        "Address 2": "",
        "City": "HOMER GLEN",
        "STATE": "IL",
        "Zip": "60441",
        "Phone": "7083013246",
        "pid": 147706
      },
      {
        "Provider": null,
        "Name": "OSCO DRUG",
        "Store ID": "2504",
        "Address 1": "3243 W 115TH ST",
        "Address 2": "",
        "City": "MERRIONETTE PARK",
        "STATE": "IL",
        "Zip": "608034555",
        "Phone": "7083899021",
        "pid": 147756
      },
      {
        "Provider": null,
        "Name": "OSCO DRUG",
        "Store ID": "2505",
        "Address 1": "345 S RAND RD",
        "Address 2": "",
        "City": "LAKE ZURICH",
        "STATE": "IL",
        "Zip": "600472271",
        "Phone": "8474382450",
        "pid": 147757
      },
      {
        "Provider": null,
        "Name": "OSCO DRUG",
        "Store ID": "2508",
        "Address 1": "1763 W HOWARD ST",
        "Address 2": "",
        "City": "CHICAGO",
        "STATE": "IL",
        "Zip": "606261626",
        "Phone": "7732741293",
        "pid": 147758
      },
      {
        "Provider": null,
        "Name": "OSCO DRUG",
        "Store ID": "2507",
        "Address 1": "800 NORTHWEST HWY",
        "Address 2": "",
        "City": "FOX RIVER GROVE",
        "STATE": "IL",
        "Zip": "600211208",
        "Phone": "8475164326",
        "pid": 147759
      },
      {
        "Provider": null,
        "Name": "OSCO DRUG",
        "Store ID": "3730",
        "Address 1": "2051 RIDGE RD",
        "Address 2": "",
        "City": "MINOOKA",
        "STATE": "IL",
        "Zip": "60447",
        "Phone": "8154671254",
        "pid": 90338
      },
      {
        "Provider": null,
        "Name": "OSCO DRUG",
        "Store ID": "3376",
        "Address 1": "370 N DESPLAINES ST",
        "Address 2": "",
        "City": "CHICAGO",
        "STATE": "IL",
        "Zip": "60661",
        "Phone": "3122432714",
        "pid": 91584
      },
      {
        "Provider": null,
        "Name": "OSCO DRUG",
        "Store ID": "3381",
        "Address 1": "220 WEST PEACE RD",
        "Address 2": "",
        "City": "SYCAMORE",
        "STATE": "IL",
        "Zip": "60178",
        "Phone": "8158959435",
        "pid": 91621
      },
      {
        "Provider": null,
        "Name": "OSCO DRUG",
        "Store ID": "3097",
        "Address 1": "1148 OGDEN AVE",
        "Address 2": "",
        "City": "DOWNERS GROVE",
        "STATE": "IL",
        "Zip": "60515",
        "Phone": "6309630749",
        "pid": 91625
      },
      {
        "Provider": null,
        "Name": "OSCO DRUG",
        "Store ID": "3347",
        "Address 1": "800 N MAIN ST",
        "Address 2": "",
        "City": "ELBURN",
        "STATE": "IL",
        "Zip": "60119",
        "Phone": "6303654240",
        "pid": 91642
      },
      {
        "Provider": null,
        "Name": "OSCO DRUG",
        "Store ID": "3374",
        "Address 1": "465 N ROUTE 47",
        "Address 2": "",
        "City": "SUGAR GROVE",
        "STATE": "IL",
        "Zip": "60554",
        "Phone": "6304663769",
        "pid": 91647
      },
      {
        "Provider": null,
        "Name": "OSCO DRUG",
        "Store ID": "3156",
        "Address 1": "446 S WASHINGTON AVE",
        "Address 2": "",
        "City": "KANKAKEE",
        "STATE": "IL",
        "Zip": "60901",
        "Phone": "8159352041",
        "pid": 91652
      },
      {
        "Provider": null,
        "Name": "OSCO DRUG",
        "Store ID": "2481",
        "Address 1": "3795 ORCHARD RD",
        "Address 2": "",
        "City": "OSWEGO",
        "STATE": "IL",
        "Zip": "60543",
        "Phone": "6305512672",
        "pid": 91653
      },
      {
        "Provider": null,
        "Name": "OSCO DRUG",
        "Store ID": "3415",
        "Address 1": "2401 ROUTE 12",
        "Address 2": "",
        "City": "SPRING GROVE",
        "STATE": "IL",
        "Zip": "60081",
        "Phone": "8156756984",
        "pid": 91675
      },
      {
        "Provider": null,
        "Name": "OSCO DRUG",
        "Store ID": "3776",
        "Address 1": "2021 E LARAWAY",
        "Address 2": "",
        "City": "NEW LENOX",
        "STATE": "IL",
        "Zip": "60451",
        "Phone": "8154634954",
        "pid": 91712
      },
      {
        "Provider": null,
        "Name": "OSCO DRUG",
        "Store ID": "3313",
        "Address 1": "1670 LARKIN AVE",
        "Address 2": "",
        "City": "ELGIN",
        "STATE": "IL",
        "Zip": "60120",
        "Phone": "8476950198",
        "pid": 21369
      },
      {
        "Provider": null,
        "Name": "OSCO DRUG",
        "Store ID": "3291",
        "Address 1": "1038 SUMMIT ST",
        "Address 2": "",
        "City": "ELGIN",
        "STATE": "IL",
        "Zip": "601204320",
        "Phone": "8476957467",
        "pid": 21370
      },
      {
        "Provider": null,
        "Name": "OSCO DRUG",
        "Store ID": "3074",
        "Address 1": "1403 W JEFFERSON",
        "Address 2": "",
        "City": "JOLIET",
        "STATE": "IL",
        "Zip": "60435",
        "Phone": "8157251290",
        "pid": 21371
      },
      {
        "Provider": null,
        "Name": "OSCO DRUG",
        "Store ID": "3310",
        "Address 1": "1501 E ALGONQUIN RD",
        "Address 2": "",
        "City": "ALGONQUIN",
        "STATE": "IL",
        "Zip": "60102",
        "Phone": "8476584036",
        "pid": 21372
      },
      {
        "Provider": null,
        "Name": "OSCO DRUG",
        "Store ID": "3445",
        "Address 1": "33 PLUM GROVE",
        "Address 2": "",
        "City": "PALATINE",
        "STATE": "IL",
        "Zip": "60067",
        "Phone": "8473581200",
        "pid": 21373
      },
      {
        "Provider": null,
        "Name": "OSCO DRUG",
        "Store ID": "3422",
        "Address 1": "122 N VAIL AVE",
        "Address 2": "",
        "City": "ARLINGTON HEIGHTS",
        "STATE": "IL",
        "Zip": "60005",
        "Phone": "8473681795",
        "pid": 21374
      },
      {
        "Provider": null,
        "Name": "OSCO DRUG",
        "Store ID": "3346",
        "Address 1": "153 SCHILLER",
        "Address 2": "",
        "City": "ELMHURST",
        "STATE": "IL",
        "Zip": "60126",
        "Phone": "6305309468",
        "pid": 21376
      },
      {
        "Provider": null,
        "Name": "OSCO DRUG",
        "Store ID": "3003",
        "Address 1": "303 HOLMES AVE",
        "Address 2": "",
        "City": "CLARENDON HILLS",
        "STATE": "IL",
        "Zip": "60514",
        "Phone": "6303253265",
        "pid": 21377
      },
      {
        "Provider": null,
        "Name": "OSCO DRUG",
        "Store ID": "3488",
        "Address 1": "1501 S LAKE ST",
        "Address 2": "",
        "City": "MUNDELEIN",
        "STATE": "IL",
        "Zip": "60060",
        "Phone": "8475660984",
        "pid": 21379
      },
      {
        "Provider": null,
        "Name": "OSCO DRUG",
        "Store ID": "3341",
        "Address 1": "341 W IRVING PARK RD",
        "Address 2": "",
        "City": "WOOD DALE",
        "STATE": "IL",
        "Zip": "60191",
        "Phone": "6307738068",
        "pid": 21380
      },
      {
        "Provider": null,
        "Name": "OSCO DRUG",
        "Store ID": "3265",
        "Address 1": "507 WOODLAWN DR",
        "Address 2": "",
        "City": "LA GRANGE PARK",
        "STATE": "IL",
        "Zip": "60526",
        "Phone": "7083525747",
        "pid": 21381
      },
      {
        "Provider": null,
        "Name": "OSCO DRUG",
        "Store ID": "3063",
        "Address 1": "763 E 162ND ST",
        "Address 2": "",
        "City": "SOUTH HOLLAND",
        "STATE": "IL",
        "Zip": "60473",
        "Phone": "7083390453",
        "pid": 21383
      },
      {
        "Provider": null,
        "Name": "OSCO DRUG",
        "Store ID": "3459",
        "Address 1": "1600 DEERFIELD RD",
        "Address 2": "",
        "City": "HIGHLAND PARK",
        "STATE": "IL",
        "Zip": "60035",
        "Phone": "8475790884",
        "pid": 21384
      },
      {
        "Provider": null,
        "Name": "OSCO DRUG",
        "Store ID": "3473",
        "Address 1": "811 ELMHURST RD",
        "Address 2": "",
        "City": "DES PLAINES",
        "STATE": "IL",
        "Zip": "60018",
        "Phone": "8474394230",
        "pid": 21385
      },
      {
        "Provider": null,
        "Name": "OSCO DRUG",
        "Store ID": "3278",
        "Address 1": "1177 S MAIN ST",
        "Address 2": "",
        "City": "LOMBARD",
        "STATE": "IL",
        "Zip": "60148",
        "Phone": "6306295050",
        "pid": 21386
      },
      {
        "Provider": null,
        "Name": "OSCO DRUG",
        "Store ID": "3425",
        "Address 1": "1480 LEE ST",
        "Address 2": "",
        "City": "DES PLAINES",
        "STATE": "IL",
        "Zip": "60018",
        "Phone": "8472998185",
        "pid": 21387
      },
      {
        "Provider": null,
        "Name": "OSCO DRUG",
        "Store ID": "3424",
        "Address 1": "3124 N LEWIS AVE",
        "Address 2": "",
        "City": "WAUKEGAN",
        "STATE": "IL",
        "Zip": "60087",
        "Phone": "8473361300",
        "pid": 21388
      },
      {
        "Provider": null,
        "Name": "OSCO DRUG",
        "Store ID": "3159",
        "Address 1": "3153 W 183RD AVE",
        "Address 2": "",
        "City": "HOMEWOOD",
        "STATE": "IL",
        "Zip": "60430",
        "Phone": "7087998411",
        "pid": 21389
      },
      {
        "Provider": null,
        "Name": "OSCO DRUG",
        "Store ID": "3514",
        "Address 1": "3531 N BROADWAY",
        "Address 2": "",
        "City": "CHICAGO",
        "STATE": "IL",
        "Zip": "60657",
        "Phone": "7735286615",
        "pid": 21390
      },
      {
        "Provider": null,
        "Name": "OSCO DRUG",
        "Store ID": "3157",
        "Address 1": "4650 W 103RD ST",
        "Address 2": "",
        "City": "OAK LAWN",
        "STATE": "IL",
        "Zip": "60453",
        "Phone": "7084222334",
        "pid": 21392
      },
      {
        "Provider": null,
        "Name": "OSCO DRUG",
        "Store ID": "3477",
        "Address 1": "4734 N PUEBLO",
        "Address 2": "",
        "City": "CHICAGO",
        "STATE": "IL",
        "Zip": "60656",
        "Phone": "7736255525",
        "pid": 21394
      },
      {
        "Provider": null,
        "Name": "OSCO DRUG",
        "Store ID": "3047",
        "Address 1": "6215 S MAIN ST",
        "Address 2": "",
        "City": "DOWNERS GROVE",
        "STATE": "IL",
        "Zip": "60516",
        "Phone": "6309710220",
        "pid": 21395
      },
      {
        "Provider": null,
        "Name": "OSCO DRUG",
        "Store ID": "3053",
        "Address 1": "12803 S HARLEM AVE",
        "Address 2": "",
        "City": "PALOS HEIGHTS",
        "STATE": "IL",
        "Zip": "60463",
        "Phone": "7086711574",
        "pid": 21396
      },
      {
        "Provider": null,
        "Name": "OSCO DRUG",
        "Store ID": "3254",
        "Address 1": "7201 W 24TH ST",
        "Address 2": "",
        "City": "NORTH RIVERSIDE",
        "STATE": "IL",
        "Zip": "60546",
        "Phone": "7084475170",
        "pid": 21397
      },
      {
        "Provider": null,
        "Name": "OSCO DRUG",
        "Store ID": "3029",
        "Address 1": "9534 S ROBERTS RD",
        "Address 2": "",
        "City": "HICKORY HILLS",
        "STATE": "IL",
        "Zip": "60457",
        "Phone": "7085980500",
        "pid": 21398
      },
      {
        "Provider": null,
        "Name": "OSCO DRUG",
        "Store ID": "3429",
        "Address 1": "8730 W DEMPSTER",
        "Address 2": "",
        "City": "NILES",
        "STATE": "IL",
        "Zip": "60714",
        "Phone": "8472968847",
        "pid": 21399
      },
      {
        "Provider": null,
        "Name": "OSCO DRUG",
        "Store ID": "3441",
        "Address 1": "2940 N ASHLAND AVE",
        "Address 2": "",
        "City": "CHICAGO",
        "STATE": "IL",
        "Zip": "60657",
        "Phone": "7733484155",
        "pid": 21405
      },
      {
        "Provider": null,
        "Name": "OSCO DRUG",
        "Store ID": "3519",
        "Address 1": "2775 PFINGSTEN",
        "Address 2": "",
        "City": "GLENVIEW",
        "STATE": "IL",
        "Zip": "60025",
        "Phone": "8475648480",
        "pid": 21406
      },
      {
        "Provider": null,
        "Name": "OSCO DRUG",
        "Store ID": "3302",
        "Address 1": "3644 S ARCHER AVE",
        "Address 2": "",
        "City": "CHICAGO",
        "STATE": "IL",
        "Zip": "60609",
        "Phone": "7735231700",
        "pid": 21407
      },
      {
        "Provider": null,
        "Name": "OSCO DRUG",
        "Store ID": "3407",
        "Address 1": "5532 N CLARK",
        "Address 2": "",
        "City": "CHICAGO",
        "STATE": "IL",
        "Zip": "60640",
        "Phone": "7737847348",
        "pid": 21409
      },
      {
        "Provider": null,
        "Name": "OSCO DRUG",
        "Store ID": "3721",
        "Address 1": "6107 S ARCHER AVE",
        "Address 2": "",
        "City": "CHICAGO",
        "STATE": "IL",
        "Zip": "60638",
        "Phone": "7737350396",
        "pid": 21410
      },
      {
        "Provider": null,
        "Name": "OSCO DRUG",
        "Store ID": "3770",
        "Address 1": "107 AVENUE OF THE CITIES",
        "Address 2": "",
        "City": "EAST MOLINE",
        "STATE": "IL",
        "Zip": "61244",
        "Phone": "3097510960",
        "pid": 21437
      },
      {
        "Provider": null,
        "Name": "OSCO DRUG",
        "Store ID": "3056",
        "Address 1": "1156 MAPLE AVE",
        "Address 2": "",
        "City": "LISLE",
        "STATE": "IL",
        "Zip": "60532",
        "Phone": "6309647100",
        "pid": 21439
      },
      {
        "Provider": null,
        "Name": "OSCO DRUG",
        "Store ID": "3476",
        "Address 1": "335 E EUCLID AVE",
        "Address 2": "",
        "City": "MOUNT PROSPECT",
        "STATE": "IL",
        "Zip": "60056",
        "Phone": "8472556030",
        "pid": 21443
      },
      {
        "Provider": null,
        "Name": "OSCO DRUG",
        "Store ID": "3123",
        "Address 1": "7329 CASS AVE",
        "Address 2": "",
        "City": "DARIEN",
        "STATE": "IL",
        "Zip": "60561",
        "Phone": "6308520070",
        "pid": 21445
      },
      {
        "Provider": null,
        "Name": "OSCO DRUG",
        "Store ID": "3518",
        "Address 1": "4222 ELM ST",
        "Address 2": "",
        "City": "MCHENRY",
        "STATE": "IL",
        "Zip": "60050",
        "Phone": "8153857030",
        "pid": 21467
      },
      {
        "Provider": null,
        "Name": "OSCO DRUG",
        "Store ID": "3252",
        "Address 1": "1950 W GALENA",
        "Address 2": "",
        "City": "AURORA",
        "STATE": "IL",
        "Zip": "60505",
        "Phone": "6308929075",
        "pid": 21470
      },
      {
        "Provider": null,
        "Name": "OSCO DRUG",
        "Store ID": "3191",
        "Address 1": "20 S WEBER RD",
        "Address 2": "",
        "City": "ROMEOVILLE",
        "STATE": "IL",
        "Zip": "60446",
        "Phone": "8152930858",
        "pid": 21480
      },
      {
        "Provider": null,
        "Name": "OSCO DRUG",
        "Store ID": "3124",
        "Address 1": "1535 N LARKIN AVE",
        "Address 2": "",
        "City": "JOLIET",
        "STATE": "IL",
        "Zip": "60435",
        "Phone": "8157292487",
        "pid": 21495
      },
      {
        "Provider": null,
        "Name": "OSCO DRUG",
        "Store ID": "3481",
        "Address 1": "481 BUSSE HWY",
        "Address 2": "",
        "City": "PARK RIDGE",
        "STATE": "IL",
        "Zip": "60068",
        "Phone": "8476963680",
        "pid": 21502
      },
      {
        "Provider": null,
        "Name": "OSCO DRUG",
        "Store ID": "3165",
        "Address 1": "17113 S HARLEM AVE",
        "Address 2": "",
        "City": "TINLEY PARK",
        "STATE": "IL",
        "Zip": "60477",
        "Phone": "7085327477",
        "pid": 21504
      },
      {
        "Provider": null,
        "Name": "OSCO DRUG",
        "Store ID": "3316",
        "Address 1": "1071 N ROSELLE RD",
        "Address 2": "",
        "City": "HOFFMAN ESTATES",
        "STATE": "IL",
        "Zip": "60195",
        "Phone": "8478826477",
        "pid": 21505
      },
      {
        "Provider": null,
        "Name": "OSCO DRUG",
        "Store ID": "3283",
        "Address 1": "2031 N MAIN",
        "Address 2": "",
        "City": "WHEATON",
        "STATE": "IL",
        "Zip": "60187",
        "Phone": "6306687235",
        "pid": 21506
      },
      {
        "Provider": null,
        "Name": "OSCO DRUG",
        "Store ID": "3170",
        "Address 1": "5324 S PULASKI",
        "Address 2": "",
        "City": "CHICAGO",
        "STATE": "IL",
        "Zip": "60632",
        "Phone": "7732847402",
        "pid": 21509
      },
      {
        "Provider": null,
        "Name": "OSCO DRUG",
        "Store ID": "3517",
        "Address 1": "6140 NW HWY",
        "Address 2": "",
        "City": "CRYSTAL LAKE",
        "STATE": "IL",
        "Zip": "60014",
        "Phone": "8153568767",
        "pid": 21512
      },
      {
        "Provider": null,
        "Name": "OSCO DRUG",
        "Store ID": "3086",
        "Address 1": "8801 S RIDGELAND",
        "Address 2": "",
        "City": "OAK LAWN",
        "STATE": "IL",
        "Zip": "60453",
        "Phone": "7085996300",
        "pid": 21520
      },
      {
        "Provider": null,
        "Name": "OSCO DRUG",
        "Store ID": "3469",
        "Address 1": "16 S WAUKEGAN RD",
        "Address 2": "",
        "City": "DEERFIELD",
        "STATE": "IL",
        "Zip": "60015",
        "Phone": "8474984150",
        "pid": 21521
      },
      {
        "Provider": null,
        "Name": "OSCO DRUG",
        "Store ID": "3181",
        "Address 1": "101 W 87TH ST",
        "Address 2": "",
        "City": "CHICAGO",
        "STATE": "IL",
        "Zip": "60620",
        "Phone": "7734836500",
        "pid": 21573
      },
      {
        "Provider": null,
        "Name": "OSCO DRUG",
        "Store ID": "3122",
        "Address 1": "2014 1ST STREET A",
        "Address 2": "",
        "City": "MOLINE",
        "STATE": "IL",
        "Zip": "61265",
        "Phone": "3097979320",
        "pid": 21575
      },
      {
        "Provider": null,
        "Name": "OSCO DRUG",
        "Store ID": "3098",
        "Address 1": "12003 S CRAWFORD",
        "Address 2": "",
        "City": "ALSIP",
        "STATE": "IL",
        "Zip": "60803",
        "Phone": "7083892725",
        "pid": 21581
      },
      {
        "Provider": null,
        "Name": "OSCO DRUG",
        "Store ID": "3446",
        "Address 1": "7900 N MILWAUKEE AVE",
        "Address 2": "",
        "City": "NILES",
        "STATE": "IL",
        "Zip": "60714",
        "Phone": "8479653916",
        "pid": 21582
      },
      {
        "Provider": null,
        "Name": "OSCO DRUG",
        "Store ID": "3188",
        "Address 1": "17705 S HALSTED ST",
        "Address 2": "",
        "City": "HOMEWOOD",
        "STATE": "IL",
        "Zip": "60430",
        "Phone": "7089571750",
        "pid": 21599
      },
      {
        "Provider": null,
        "Name": "OSCO DRUG",
        "Store ID": "3068",
        "Address 1": "50 E OGDEN",
        "Address 2": "",
        "City": "WESTMONT",
        "STATE": "IL",
        "Zip": "60559",
        "Phone": "6309868065",
        "pid": 21619
      },
      {
        "Provider": null,
        "Name": "OSCO DRUG",
        "Store ID": "3257",
        "Address 1": "10203 W GRAND AVE",
        "Address 2": "",
        "City": "FRANKLIN PARK",
        "STATE": "IL",
        "Zip": "60131",
        "Phone": "8474550633",
        "pid": 21620
      },
      {
        "Provider": null,
        "Name": "OSCO DRUG",
        "Store ID": "3349",
        "Address 1": "2520 N NARRAGANSETT AVE",
        "Address 2": "",
        "City": "CHICAGO",
        "STATE": "IL",
        "Zip": "60639",
        "Phone": "7736371819",
        "pid": 22066
      },
      {
        "Provider": null,
        "Name": "OSCO DRUG",
        "Store ID": "3443",
        "Address 1": "5345 N BROADWAY",
        "Address 2": "",
        "City": "CHICAGO",
        "STATE": "IL",
        "Zip": "60640",
        "Phone": "7733342083",
        "pid": 22076
      },
      {
        "Provider": null,
        "Name": "OSCO DRUG",
        "Store ID": "3775",
        "Address 1": "2103 N VETERANS PKWY",
        "Address 2": "UNIT 3",
        "City": "BLOOMINGTON",
        "STATE": "IL",
        "Zip": "61704",
        "Phone": "3096641333",
        "pid": 22087
      },
      {
        "Provider": null,
        "Name": "OSCO DRUG",
        "Store ID": "3111",
        "Address 1": "1225 NAPER BLVD",
        "Address 2": "",
        "City": "NAPERVILLE",
        "STATE": "IL",
        "Zip": "60540",
        "Phone": "6309613210",
        "pid": 22155
      },
      {
        "Provider": null,
        "Name": "OSCO DRUG",
        "Store ID": "3062",
        "Address 1": "2317 75TH ST",
        "Address 2": "",
        "City": "WOODRIDGE",
        "STATE": "IL",
        "Zip": "60517",
        "Phone": "6309855383",
        "pid": 22168
      },
      {
        "Provider": null,
        "Name": "OSCO DRUG",
        "Store ID": "3264",
        "Address 1": "2164 BLOOMINGDALE RD",
        "Address 2": "",
        "City": "GLENDALE HEIGHTS",
        "STATE": "IL",
        "Zip": "60139",
        "Phone": "6309804301",
        "pid": 22189
      },
      {
        "Provider": null,
        "Name": "OSCO DRUG",
        "Store ID": "3432",
        "Address 1": "900 E ROLLINS RD",
        "Address 2": "",
        "City": "ROUND LAKE BEACH",
        "STATE": "IL",
        "Zip": "60073",
        "Phone": "8472237056",
        "pid": 22190
      },
      {
        "Provider": null,
        "Name": "OSCO DRUG",
        "Store ID": "3331",
        "Address 1": "2038 PRAIRIE AVE",
        "Address 2": "",
        "City": "ST CHARLES",
        "STATE": "IL",
        "Zip": "60174",
        "Phone": "6303771655",
        "pid": 22208
      },
      {
        "Provider": null,
        "Name": "OSCO DRUG",
        "Store ID": "3308",
        "Address 1": "1151 S ROSELLE RD",
        "Address 2": "",
        "City": "SCHAUMBURG",
        "STATE": "IL",
        "Zip": "60193",
        "Phone": "8478951600",
        "pid": 22231
      },
      {
        "Provider": null,
        "Name": "OSCO DRUG",
        "Store ID": "3344",
        "Address 1": "1220 S ASHLAND AVE",
        "Address 2": "",
        "City": "CHICAGO",
        "STATE": "IL",
        "Zip": "60608",
        "Phone": "3127332837",
        "pid": 22248
      },
      {
        "Provider": null,
        "Name": "OSCO DRUG",
        "Store ID": "3455",
        "Address 1": "4355 N SHERIDAN RD",
        "Address 2": "",
        "City": "CHICAGO",
        "STATE": "IL",
        "Zip": "60613",
        "Phone": "7735254766",
        "pid": 22263
      },
      {
        "Provider": null,
        "Name": "OSCO DRUG",
        "Store ID": "3406",
        "Address 1": "1300 S MILWAUKEE AVE",
        "Address 2": "",
        "City": "LIBERTYVILLE",
        "STATE": "IL",
        "Zip": "60048",
        "Phone": "8476808300",
        "pid": 22272
      },
      {
        "Provider": null,
        "Name": "OSCO DRUG",
        "Store ID": "3485",
        "Address 1": "485 ELA RD",
        "Address 2": "",
        "City": "LAKE ZURICH",
        "STATE": "IL",
        "Zip": "60047",
        "Phone": "8475400130",
        "pid": 22293
      },
      {
        "Provider": null,
        "Name": "OSCO DRUG",
        "Store ID": "3503",
        "Address 1": "145 S EASTWOOD DR",
        "Address 2": "",
        "City": "WOODSTOCK",
        "STATE": "IL",
        "Zip": "60098",
        "Phone": "8152060716",
        "pid": 22299
      },
      {
        "Provider": null,
        "Name": "OSCO DRUG",
        "Store ID": "3348",
        "Address 1": "125 E STEARNS RD",
        "Address 2": "",
        "City": "BARTLETT",
        "STATE": "IL",
        "Zip": "60103",
        "Phone": "6305401285",
        "pid": 22300
      },
      {
        "Provider": null,
        "Name": "OSCO DRUG",
        "Store ID": "3338",
        "Address 1": "177 E ROOSEVELT RD",
        "Address 2": "",
        "City": "WEST CHICAGO",
        "STATE": "IL",
        "Zip": "60185",
        "Phone": "6302935360",
        "pid": 22311
      },
      {
        "Provider": null,
        "Name": "OSCO DRUG",
        "Store ID": "3051",
        "Address 1": "9352 W 159TH ST",
        "Address 2": "",
        "City": "ORLAND PARK",
        "STATE": "IL",
        "Zip": "60462",
        "Phone": "7084608212",
        "pid": 22332
      },
      {
        "Provider": null,
        "Name": "OSCO DRUG",
        "Store ID": "3167",
        "Address 1": "3240 CHICAGO RD",
        "Address 2": "",
        "City": "OUTH CHICAGO HEIGHTS",
        "STATE": "IL",
        "Zip": "60411",
        "Phone": "7087567775",
        "pid": 22338
      },
      {
        "Provider": null,
        "Name": "OSCO DRUG",
        "Store ID": "3479",
        "Address 1": "79 MCHENRY RD",
        "Address 2": "",
        "City": "BUFFALO GROVE",
        "STATE": "IL",
        "Zip": "60089",
        "Phone": "8475370845",
        "pid": 22345
      },
      {
        "Provider": null,
        "Name": "OSCO DRUG",
        "Store ID": "3294",
        "Address 1": "140 W LAKE ST",
        "Address 2": "",
        "City": "ADDISON",
        "STATE": "IL",
        "Zip": "60101",
        "Phone": "6306286904",
        "pid": 22371
      },
      {
        "Provider": null,
        "Name": "OSCO DRUG",
        "Store ID": "3466",
        "Address 1": "968 ROUTE 59",
        "Address 2": "",
        "City": "ANTIOCH",
        "STATE": "IL",
        "Zip": "60002",
        "Phone": "8473957101",
        "pid": 22372
      },
      {
        "Provider": null,
        "Name": "OSCO DRUG",
        "Store ID": "3470",
        "Address 1": "3572 N ELSTON",
        "Address 2": "",
        "City": "CHICAGO",
        "STATE": "IL",
        "Zip": "60618",
        "Phone": "7735839858",
        "pid": 22384
      },
      {
        "Provider": null,
        "Name": "OSCO DRUG",
        "Store ID": "3187",
        "Address 1": "11730 S MARSHFIELD AVE",
        "Address 2": "",
        "City": "CHICAGO",
        "STATE": "IL",
        "Zip": "60643",
        "Phone": "7735688370",
        "pid": 22390
      },
      {
        "Provider": null,
        "Name": "OSCO DRUG",
        "Store ID": "2488",
        "Address 1": "655 MAIN ST NW",
        "Address 2": "",
        "City": "BOURBONNAIS",
        "STATE": "IL",
        "Zip": "60914",
        "Phone": "8159290590",
        "pid": 22399
      },
      {
        "Provider": null,
        "Name": "OSCO DRUG",
        "Store ID": "3228",
        "Address 1": "2128 S MANNHEIM RD",
        "Address 2": "",
        "City": "WESTCHESTER",
        "STATE": "IL",
        "Zip": "60154",
        "Phone": "7085627334",
        "pid": 22420
      },
      {
        "Provider": null,
        "Name": "OSCO DRUG",
        "Store ID": "3092",
        "Address 1": "1655 E 95TH ST",
        "Address 2": "",
        "City": "CHICAGO",
        "STATE": "IL",
        "Zip": "60619",
        "Phone": "7737319650",
        "pid": 22421
      },
      {
        "Provider": null,
        "Name": "OSCO DRUG",
        "Store ID": "3241",
        "Address 1": "1343 N PAULINA",
        "Address 2": "",
        "City": "CHICAGO",
        "STATE": "IL",
        "Zip": "60622",
        "Phone": "7733425217",
        "pid": 22463
      },
      {
        "Provider": null,
        "Name": "OSCO DRUG",
        "Store ID": "3428",
        "Address 1": "1128 CHICAGO AVE",
        "Address 2": "",
        "City": "EVANSTON",
        "STATE": "IL",
        "Zip": "60202",
        "Phone": "8478693520",
        "pid": 22464
      },
      {
        "Provider": null,
        "Name": "OSCO DRUG",
        "Store ID": "3073",
        "Address 1": "901 S COTTAGE AVE",
        "Address 2": "",
        "City": "NORMAL",
        "STATE": "IL",
        "Zip": "61761",
        "Phone": "3094546080",
        "pid": 22476
      },
      {
        "Provider": null,
        "Name": "OSCO DRUG",
        "Store ID": "3421",
        "Address 1": "1402 21ST ST",
        "Address 2": "",
        "City": "ZION",
        "STATE": "IL",
        "Zip": "60099",
        "Phone": "8477462616",
        "pid": 22477
      },
      {
        "Provider": null,
        "Name": "OSCO DRUG",
        "Store ID": "3496",
        "Address 1": "696 NW HWY",
        "Address 2": "",
        "City": "CARY",
        "STATE": "IL",
        "Zip": "60013",
        "Phone": "8476393652",
        "pid": 22503
      },
      {
        "Provider": null,
        "Name": "OSCO DRUG",
        "Store ID": "3340",
        "Address 1": "599 ROOSEVELT RD",
        "Address 2": "",
        "City": "GLEN ELLYN",
        "STATE": "IL",
        "Zip": "60137",
        "Phone": "6307902294",
        "pid": 22519
      },
      {
        "Provider": null,
        "Name": "OSCO DRUG",
        "Store ID": "3268",
        "Address 1": "217 IRVING PARK RD",
        "Address 2": "",
        "City": "STREAMWOOD",
        "STATE": "IL",
        "Zip": "60107",
        "Phone": "6308372020",
        "pid": 22520
      },
      {
        "Provider": null,
        "Name": "OSCO DRUG",
        "Store ID": "3088",
        "Address 1": "1312 JOHN DEERE EXPY",
        "Address 2": "",
        "City": "SILVIS",
        "STATE": "IL",
        "Zip": "61282",
        "Phone": "3097925990",
        "pid": 22543
      },
      {
        "Provider": null,
        "Name": "OSCO DRUG",
        "Store ID": "3284",
        "Address 1": "31 ST CHARLES RD",
        "Address 2": "",
        "City": "VILLA PARK",
        "STATE": "IL",
        "Zip": "60181",
        "Phone": "6302798900",
        "pid": 22658
      },
      {
        "Provider": null,
        "Name": "OSCO DRUG",
        "Store ID": "3244",
        "Address 1": "942 YORK RD",
        "Address 2": "",
        "City": "ELMHURST",
        "STATE": "IL",
        "Zip": "60126",
        "Phone": "6308342000",
        "pid": 22701
      },
      {
        "Provider": null,
        "Name": "OSCO DRUG",
        "Store ID": "3515",
        "Address 1": "543 LIBERTY ST",
        "Address 2": "",
        "City": "WAUCONDA",
        "STATE": "IL",
        "Zip": "60084",
        "Phone": "8475261239",
        "pid": 22702
      },
      {
        "Provider": null,
        "Name": "OSCO DRUG",
        "Store ID": "3220",
        "Address 1": "22 BIESTERFIELD RD",
        "Address 2": "",
        "City": "ELK GROVE VILLAGE",
        "STATE": "IL",
        "Zip": "60007",
        "Phone": "8475931226",
        "pid": 22726
      },
      {
        "Provider": null,
        "Name": "OSCO DRUG",
        "Store ID": "3230",
        "Address 1": "30 DANADA SQUARE W",
        "Address 2": "",
        "City": "WHEATON",
        "STATE": "IL",
        "Zip": "60189",
        "Phone": "6306681211",
        "pid": 22743
      },
      {
        "Provider": null,
        "Name": "OSCO DRUG",
        "Store ID": "3246",
        "Address 1": "760 ARMY TRAIL RD",
        "Address 2": "",
        "City": "CAROL STREAM",
        "STATE": "IL",
        "Zip": "60188",
        "Phone": "6302893777",
        "pid": 22794
      },
      {
        "Provider": null,
        "Name": "OSCO DRUG",
        "Store ID": "3216",
        "Address 1": "2503 SCHAUMBURG RD",
        "Address 2": "",
        "City": "SCHAUMBURG",
        "STATE": "IL",
        "Zip": "60194",
        "Phone": "8475241660",
        "pid": 22795
      },
      {
        "Provider": null,
        "Name": "OSCO DRUG",
        "Store ID": "3272",
        "Address 1": "1322 SYCAMORE",
        "Address 2": "",
        "City": "DEKALB",
        "STATE": "IL",
        "Zip": "60115",
        "Phone": "8157561328",
        "pid": 22824
      },
      {
        "Provider": null,
        "Name": "OSCO DRUG",
        "Store ID": "3224",
        "Address 1": "6426 W IRVING PK RD",
        "Address 2": "",
        "City": "CHICAGO",
        "STATE": "IL",
        "Zip": "60634",
        "Phone": "7737252900",
        "pid": 22829
      },
      {
        "Provider": null,
        "Name": "OSCO DRUG",
        "Store ID": "3484",
        "Address 1": "5665 W TOUHY AVE",
        "Address 2": "",
        "City": "NILES",
        "STATE": "IL",
        "Zip": "60714",
        "Phone": "8476471933",
        "pid": 22847
      },
      {
        "Provider": null,
        "Name": "OSCO DRUG",
        "Store ID": "3160",
        "Address 1": "9650 W 131ST ST",
        "Address 2": "",
        "City": "PALOS PARK",
        "STATE": "IL",
        "Zip": "60464",
        "Phone": "7083618090",
        "pid": 22848
      },
      {
        "Provider": null,
        "Name": "OSCO DRUG",
        "Store ID": "3219",
        "Address 1": "129 RANDALL RD",
        "Address 2": "",
        "City": "BATAVIA",
        "STATE": "IL",
        "Zip": "60510",
        "Phone": "6308798858",
        "pid": 22875
      },
      {
        "Provider": null,
        "Name": "OSCO DRUG",
        "Store ID": "3491",
        "Address 1": "3004 KIRCHOFF RD",
        "Address 2": "",
        "City": "ROLLING MEADOWS",
        "STATE": "IL",
        "Zip": "60008",
        "Phone": "8478180095",
        "pid": 22876
      },
      {
        "Provider": null,
        "Name": "OSCO DRUG",
        "Store ID": "3138",
        "Address 1": "2530 US ROUTE 30",
        "Address 2": "",
        "City": "OSWEGO",
        "STATE": "IL",
        "Zip": "60543",
        "Phone": "6308920030",
        "pid": 22877
      },
      {
        "Provider": null,
        "Name": "OSCO DRUG",
        "Store ID": "3516",
        "Address 1": "920 N GREEN BAY RD",
        "Address 2": "",
        "City": "WAUKEGAN",
        "STATE": "IL",
        "Zip": "60085",
        "Phone": "8476237066",
        "pid": 22905
      },
      {
        "Provider": null,
        "Name": "OSCO DRUG",
        "Store ID": "3116",
        "Address 1": "2201 E OAKLAND",
        "Address 2": "",
        "City": "BLOOMINGTON",
        "STATE": "IL",
        "Zip": "61701",
        "Phone": "3096636341",
        "pid": 22935
      },
      {
        "Provider": null,
        "Name": "OSCO DRUG",
        "Store ID": "3223",
        "Address 1": "7523 W LAKE ST",
        "Address 2": "",
        "City": "RIVER FOREST",
        "STATE": "IL",
        "Zip": "60305",
        "Phone": "7087714445",
        "pid": 22950
      },
      {
        "Provider": null,
        "Name": "OSCO DRUG",
        "Store ID": "3176",
        "Address 1": "9402 S ASHLAND AVE",
        "Address 2": "",
        "City": "CHICAGO",
        "STATE": "IL",
        "Zip": "60620",
        "Phone": "7737790017",
        "pid": 22989
      },
      {
        "Provider": null,
        "Name": "OSCO DRUG",
        "Store ID": "3030",
        "Address 1": "7530 S STONY ISLAND",
        "Address 2": "",
        "City": "CHICAGO",
        "STATE": "IL",
        "Zip": "60649",
        "Phone": "7732887002",
        "pid": 22991
      },
      {
        "Provider": null,
        "Name": "OSCO DRUG",
        "Store ID": "3478",
        "Address 1": "442 E RAND RD",
        "Address 2": "",
        "City": "ARLINGTON HEIGHTS",
        "STATE": "IL",
        "Zip": "60004",
        "Phone": "8472558740",
        "pid": 23003
      },
      {
        "Provider": null,
        "Name": "OSCO DRUG",
        "Store ID": "3163",
        "Address 1": "5610 W 159TH ST",
        "Address 2": "",
        "City": "OAK FOREST",
        "STATE": "IL",
        "Zip": "60452",
        "Phone": "7086870122",
        "pid": 23080
      },
      {
        "Provider": null,
        "Name": "OSCO DRUG",
        "Store ID": "3306",
        "Address 1": "1260 W MAIN ST",
        "Address 2": "",
        "City": "WEST DUNDEE",
        "STATE": "IL",
        "Zip": "60118",
        "Phone": "8474285522",
        "pid": 23081
      },
      {
        "Provider": null,
        "Name": "OSCO DRUG",
        "Store ID": "3052",
        "Address 1": "354 LA GRANGE RD",
        "Address 2": "",
        "City": "FRANKFORT",
        "STATE": "IL",
        "Zip": "60423",
        "Phone": "8154645050",
        "pid": 23151
      },
      {
        "Provider": null,
        "Name": "OSCO DRUG",
        "Store ID": "3442",
        "Address 1": "4032 W FOSTER AVE",
        "Address 2": "",
        "City": "CHICAGO",
        "STATE": "IL",
        "Zip": "60630",
        "Phone": "7734788750",
        "pid": 23156
      },
      {
        "Provider": null,
        "Name": "OSCO DRUG",
        "Store ID": "3486",
        "Address 1": "1489 PALATINE RD",
        "Address 2": "",
        "City": "HOFFMAN ESTATES",
        "STATE": "IL",
        "Zip": "60195",
        "Phone": "8472029232",
        "pid": 23203
      },
      {
        "Provider": null,
        "Name": "OSCO DRUG",
        "Store ID": "3290",
        "Address 1": "806 W N AVE",
        "Address 2": "",
        "City": "MELROSE PARK",
        "STATE": "IL",
        "Zip": "60160",
        "Phone": "7085478735",
        "pid": 23224
      },
      {
        "Provider": null,
        "Name": "OSCO DRUG",
        "Store ID": "3256",
        "Address 1": "107 S RANDALL RD",
        "Address 2": "",
        "City": "ALGONQUIN",
        "STATE": "IL",
        "Zip": "60102",
        "Phone": "8478540242",
        "pid": 23252
      },
      {
        "Provider": null,
        "Name": "OSCO DRUG",
        "Store ID": "3490",
        "Address 1": "892 N WESTERN AVE",
        "Address 2": "",
        "City": "LAKE FOREST",
        "STATE": "IL",
        "Zip": "60045",
        "Phone": "8477351032",
        "pid": 23297
      },
      {
        "Provider": null,
        "Name": "OSCO DRUG",
        "Store ID": "3487",
        "Address 1": "2491 HOWARD ST",
        "Address 2": "",
        "City": "EVANSTON",
        "STATE": "IL",
        "Zip": "60202",
        "Phone": "8473289951",
        "pid": 23363
      },
      {
        "Provider": null,
        "Name": "OSCO DRUG",
        "Store ID": "3059",
        "Address 1": "1755 W OGDEN AVE",
        "Address 2": "",
        "City": "NAPERVILLE",
        "STATE": "IL",
        "Zip": "60540",
        "Phone": "6306371370",
        "pid": 23372
      },
      {
        "Provider": null,
        "Name": "OSCO DRUG",
        "Store ID": "3451",
        "Address 1": "146 W MAIN ST",
        "Address 2": "",
        "City": "BARRINGTON",
        "STATE": "IL",
        "Zip": "60010",
        "Phone": "8473813152",
        "pid": 23401
      },
      {
        "Provider": null,
        "Name": "OSCO DRUG",
        "Store ID": "3405",
        "Address 1": "6507 GRAND AVE",
        "Address 2": "",
        "City": "GURNEE",
        "STATE": "IL",
        "Zip": "60031",
        "Phone": "8478550990",
        "pid": 23411
      },
      {
        "Provider": null,
        "Name": "OSCO DRUG",
        "Store ID": "3107",
        "Address 1": "9424 S PULASKI RD",
        "Address 2": "",
        "City": "OAK LAWN",
        "STATE": "IL",
        "Zip": "60453",
        "Phone": "7088578274",
        "pid": 23471
      },
      {
        "Provider": null,
        "Name": "OSCO DRUG",
        "Store ID": "3013",
        "Address 1": "1200 W BOUGHTON RD",
        "Address 2": "",
        "City": "BOLINGBROOK",
        "STATE": "IL",
        "Zip": "60440",
        "Phone": "6307591362",
        "pid": 23507
      },
      {
        "Provider": null,
        "Name": "OSCO DRUG",
        "Store ID": "3103",
        "Address 1": "7122 W 40TH ST",
        "Address 2": "",
        "City": "STICKNEY",
        "STATE": "IL",
        "Zip": "60402",
        "Phone": "7084848410",
        "pid": 23508
      },
      {
        "Provider": null,
        "Name": "OSCO DRUG",
        "Store ID": "3154",
        "Address 1": "5545 BRAINARD AVE",
        "Address 2": "",
        "City": "COUNTRYSIDE",
        "STATE": "IL",
        "Zip": "60525",
        "Phone": "7083542689",
        "pid": 23525
      },
      {
        "Provider": null,
        "Name": "OSCO DRUG",
        "Store ID": "3060",
        "Address 1": "7910 S CICERO",
        "Address 2": "",
        "City": "BURBANK",
        "STATE": "IL",
        "Zip": "60459",
        "Phone": "7084232098",
        "pid": 23526
      },
      {
        "Provider": null,
        "Name": "OSCO DRUG",
        "Store ID": "3182",
        "Address 1": "1202 STATE ST",
        "Address 2": "",
        "City": "LEMONT",
        "STATE": "IL",
        "Zip": "60439",
        "Phone": "6302431803",
        "pid": 23542
      },
      {
        "Provider": null,
        "Name": "OSCO DRUG",
        "Store ID": "3178",
        "Address 1": "475 N NELSON RD",
        "Address 2": "",
        "City": "NEW LENOX",
        "STATE": "IL",
        "Zip": "60451",
        "Phone": "8154621998",
        "pid": 23549
      },
      {
        "Provider": null,
        "Name": "OSCO DRUG",
        "Store ID": "3080",
        "Address 1": "2480 ROUTE 59",
        "Address 2": "",
        "City": "PLAINFIELD",
        "STATE": "IL",
        "Zip": "60544",
        "Phone": "8152543391",
        "pid": 23552
      },
      {
        "Provider": null,
        "Name": "OSCO DRUG",
        "Store ID": "3474",
        "Address 1": "423 E DUNDEE RD",
        "Address 2": "",
        "City": "PALATINE",
        "STATE": "IL",
        "Zip": "60074",
        "Phone": "8473585890",
        "pid": 23610
      },
      {
        "Provider": null,
        "Name": "OSCO DRUG",
        "Store ID": "3262",
        "Address 1": "4660 IRVING PARK RD",
        "Address 2": "",
        "City": "CHICAGO",
        "STATE": "IL",
        "Zip": "60641",
        "Phone": "7732020072",
        "pid": 23623
      },
      {
        "Provider": null,
        "Name": "OSCO DRUG",
        "Store ID": "3426",
        "Address 1": "2502 WAUKEGAN RD",
        "Address 2": "",
        "City": "GLENVIEW",
        "STATE": "IL",
        "Zip": "60025",
        "Phone": "8474860571",
        "pid": 23628
      },
      {
        "Provider": null,
        "Name": "OSCO DRUG",
        "Store ID": "3453",
        "Address 1": "1350 S ROUTE 12",
        "Address 2": "",
        "City": "FOX LAKE",
        "STATE": "IL",
        "Zip": "60020",
        "Phone": "8475874206",
        "pid": 23629
      },
      {
        "Provider": null,
        "Name": "OSCO DRUG",
        "Store ID": "3058",
        "Address 1": "2855 W 95TH ST",
        "Address 2": "",
        "City": "NAPERVILLE",
        "STATE": "IL",
        "Zip": "60564",
        "Phone": "6309047709",
        "pid": 23630
      },
      {
        "Provider": null,
        "Name": "OSCO DRUG",
        "Store ID": "3456",
        "Address 1": "411 N GREEN BAY RD",
        "Address 2": "",
        "City": "WILMETTE",
        "STATE": "IL",
        "Zip": "60091",
        "Phone": "8478538001",
        "pid": 23664
      },
      {
        "Provider": null,
        "Name": "OSCO DRUG",
        "Store ID": "3461",
        "Address 1": "1860 S ARLINGTON HEIGHTS RD",
        "Address 2": "",
        "City": "ARLINGTON HEIGHTS",
        "STATE": "IL",
        "Zip": "60005",
        "Phone": "8474398892",
        "pid": 23683
      },
      {
        "Provider": null,
        "Name": "OSCO DRUG",
        "Store ID": "3260",
        "Address 1": "652 KIRK RD",
        "Address 2": "",
        "City": "ST CHARLES",
        "STATE": "IL",
        "Zip": "60174",
        "Phone": "6305870855",
        "pid": 23823
      },
      {
        "Provider": null,
        "Name": "OSCO DRUG",
        "Store ID": "3288",
        "Address 1": "438 W MADISON",
        "Address 2": "",
        "City": "OAK PARK",
        "STATE": "IL",
        "Zip": "60302",
        "Phone": "7083580935",
        "pid": 23875
      },
      {
        "Provider": null,
        "Name": "OSCO DRUG",
        "Store ID": "3465",
        "Address 1": "9449 SKOKIE BLVD",
        "Address 2": "",
        "City": "SKOKIE",
        "STATE": "IL",
        "Zip": "60077",
        "Phone": "8476772564",
        "pid": 23928
      },
      {
        "Provider": null,
        "Name": "OSCO DRUG",
        "Store ID": "3343",
        "Address 1": "375 RANDALL RD",
        "Address 2": "",
        "City": "SOUTH ELGIN",
        "STATE": "IL",
        "Zip": "60177",
        "Phone": "8476221220",
        "pid": 23929
      },
      {
        "Provider": null,
        "Name": "OSCO DRUG",
        "Store ID": "3464",
        "Address 1": "885 E BELVIDERE RD",
        "Address 2": "",
        "City": "GRAYSLAKE",
        "STATE": "IL",
        "Zip": "60030",
        "Phone": "8475439082",
        "pid": 24018
      },
      {
        "Provider": null,
        "Name": "OSCO DRUG",
        "Store ID": "3185",
        "Address 1": "127 E OGDEN AVE",
        "Address 2": "",
        "City": "NAPERVILLE",
        "STATE": "IL",
        "Zip": "60563",
        "Phone": "6303571040",
        "pid": 24027
      },
      {
        "Provider": null,
        "Name": "OSCO DRUG",
        "Store ID": "3190",
        "Address 1": "13460 S ROUTE 59",
        "Address 2": "",
        "City": "PLAINFIELD",
        "STATE": "IL",
        "Zip": "60544",
        "Phone": "8155772613",
        "pid": 24051
      },
      {
        "Provider": null,
        "Name": "OSCO DRUG",
        "Store ID": "3345",
        "Address 1": "1224 S WABASH",
        "Address 2": "",
        "City": "CHICAGO",
        "STATE": "IL",
        "Zip": "60605",
        "Phone": "3126634646",
        "pid": 24056
      },
      {
        "Provider": null,
        "Name": "OSCO DRUG",
        "Store ID": "3240",
        "Address 1": "1157 EOLA RD",
        "Address 2": "",
        "City": "AURORA",
        "STATE": "IL",
        "Zip": "60504",
        "Phone": "6308514657",
        "pid": 24059
      },
      {
        "Provider": null,
        "Name": "OSCO DRUG",
        "Store ID": "3501",
        "Address 1": "3400 N WESTERN AVE",
        "Address 2": "",
        "City": "CHICAGO",
        "STATE": "IL",
        "Zip": "60618",
        "Phone": "7733272723",
        "pid": 24076
      },
      {
        "Provider": null,
        "Name": "OSCO DRUG",
        "Store ID": "3102",
        "Address 1": "234 E VETERANS PKWY",
        "Address 2": "",
        "City": "YORKVILLE",
        "STATE": "IL",
        "Zip": "60560",
        "Phone": "6305538615",
        "pid": 24086
      },
      {
        "Provider": null,
        "Name": "OSCO DRUG",
        "Store ID": "3394",
        "Address 1": "13200 VILLAGE GREEN DR",
        "Address 2": "",
        "City": "HUNTLEY",
        "STATE": "IL",
        "Zip": "60142",
        "Phone": "8479615625",
        "pid": 24095
      },
      {
        "Provider": null,
        "Name": "OSCO DRUG",
        "Store ID": "3084",
        "Address 1": "199 BROOK FOREST AVE",
        "Address 2": "",
        "City": "SHOREWOOD",
        "STATE": "IL",
        "Zip": "60431",
        "Phone": "8157303973",
        "pid": 24096
      },
      {
        "Provider": null,
        "Name": "OSCO DRUG",
        "Store ID": "3720",
        "Address 1": "16625 W 159TH ST",
        "Address 2": "",
        "City": "LOCKPORT",
        "STATE": "IL",
        "Zip": "60441",
        "Phone": "8158349910",
        "pid": 24098
      },
      {
        "Provider": null,
        "Name": "OSCO DRUG",
        "Store ID": "3192",
        "Address 1": "17930 WOLF RD",
        "Address 2": "",
        "City": "ORLAND PARK",
        "STATE": "IL",
        "Zip": "60467",
        "Phone": "7084791744",
        "pid": 24107
      },
      {
        "Provider": null,
        "Name": "OSCO DRUG",
        "Store ID": "3741",
        "Address 1": "1414 DIVISION ST",
        "Address 2": "",
        "City": "MORRIS",
        "STATE": "IL",
        "Zip": "60450",
        "Phone": "8159412353",
        "pid": 24123
      },
      {
        "Provider": null,
        "Name": "OSCO DRUG",
        "Store ID": "3296",
        "Address 1": "7342 W FOSTER AVE",
        "Address 2": "",
        "City": "CHICAGO",
        "STATE": "IL",
        "Zip": "60656",
        "Phone": "7737753777",
        "pid": 24130
      },
      {
        "Provider": null,
        "Name": "OSCO DRUG #3061",
        "Store ID": "3061",
        "Address 1": "1150 W MAPLE AVE",
        "Address 2": "",
        "City": "MUNDELEIN",
        "STATE": "IL",
        "Zip": "600601409",
        "Phone": "8479709324",
        "pid": 162970
      },
      {
        "Provider": null,
        "Name": "OSCO DRUG #3076",
        "Store ID": "3076",
        "Address 1": "1276 N MAIN ST",
        "Address 2": "",
        "City": "CROWN POINT",
        "STATE": "IN",
        "Zip": "46307",
        "Phone": "2196620200",
        "pid": 24766
      },
      {
        "Provider": null,
        "Name": "OSCO DRUG #3096",
        "Store ID": "3096",
        "Address 1": "716 RIDGE RD",
        "Address 2": "",
        "City": "MUNSTER",
        "STATE": "IN",
        "Zip": "46321",
        "Phone": "2198367978",
        "pid": 24812
      },
      {
        "Provider": null,
        "Name": "OSCO DRUG #3127",
        "Store ID": "3127",
        "Address 1": "805 JOLIET ST",
        "Address 2": "",
        "City": "DYER",
        "STATE": "IN",
        "Zip": "46311",
        "Phone": "2198644314",
        "pid": 24815
      },
      {
        "Provider": null,
        "Name": "OSCO DRUG #3189",
        "Store ID": "3189",
        "Address 1": "747 INDIAN BOUNDARY RD",
        "Address 2": "",
        "City": "CHESTERTON",
        "STATE": "IN",
        "Zip": "46304",
        "Phone": "2199268723",
        "pid": 24866
      },
      {
        "Provider": null,
        "Name": "OSCO DRUG #3495",
        "Store ID": "3495",
        "Address 1": "1127 S YORK RD",
        "Address 2": "",
        "City": "BENSENVILLE",
        "STATE": "IL",
        "Zip": "601063342",
        "Phone": "6302380289",
        "pid": 160505
      },
      {
        "Provider": null,
        "Name": "OSCO PHARMACY",
        "Store ID": "7603",
        "Address 1": "137 TEA TICKET HWY",
        "Address 2": "",
        "City": "EAST FALMOUTH",
        "STATE": "MA",
        "Zip": "02536",
        "Phone": "5084571185",
        "pid": 92999
      },
      {
        "Provider": null,
        "Name": "OSCO PHARMACY",
        "Store ID": "7596",
        "Address 1": "18 SISSON RD",
        "Address 2": "",
        "City": "HARWICH",
        "STATE": "MA",
        "Zip": "02646",
        "Phone": "5084320895",
        "pid": 93000
      },
      {
        "Provider": null,
        "Name": "OSCO PHARMACY",
        "Store ID": "7412",
        "Address 1": "125 TONER BLVD",
        "Address 2": "",
        "City": "NORTH ATTLEBORO",
        "STATE": "MA",
        "Zip": "02760",
        "Phone": "5086430312",
        "pid": 93015
      },
      {
        "Provider": null,
        "Name": "OSCO PHARMACY",
        "Store ID": "7495",
        "Address 1": "180A CAMBRIDGE ST",
        "Address 2": "",
        "City": "BURLINGTON",
        "STATE": "MA",
        "Zip": "01803",
        "Phone": "7812210144",
        "pid": 93050
      },
      {
        "Provider": null,
        "Name": "OSCO PHARMACY",
        "Store ID": "7627",
        "Address 1": "760A BOSTON RD",
        "Address 2": "",
        "City": "GROTON",
        "STATE": "MA",
        "Zip": "01450",
        "Phone": "9784482605",
        "pid": 93053
      },
      {
        "Provider": null,
        "Name": "OSCO PHARMACY",
        "Store ID": "7569",
        "Address 1": "1070 LEXINGTON ST",
        "Address 2": "",
        "City": "WALTHAM",
        "STATE": "MA",
        "Zip": "02452",
        "Phone": "7818993332",
        "pid": 93065
      },
      {
        "Provider": null,
        "Name": "OSCO PHARMACY",
        "Store ID": "7428",
        "Address 1": "95 WASHINGTON ST",
        "Address 2": "",
        "City": "CANTON",
        "STATE": "MA",
        "Zip": "02021",
        "Phone": "7812984400",
        "pid": 93070
      },
      {
        "Provider": null,
        "Name": "OSCO PHARMACY",
        "Store ID": "7414",
        "Address 1": "230 MAIN ST",
        "Address 2": "",
        "City": "MEDFIELD",
        "STATE": "MA",
        "Zip": "02052",
        "Phone": "5083596855",
        "pid": 93073
      },
      {
        "Provider": null,
        "Name": "OSCO PHARMACY",
        "Store ID": "7594",
        "Address 1": "16 WEBSTER SQUARE",
        "Address 2": "",
        "City": "MARSHFIELD",
        "STATE": "MA",
        "Zip": "02050",
        "Phone": "7818375163",
        "pid": 93089
      },
      {
        "Provider": null,
        "Name": "OSCO PHARMACY",
        "Store ID": "7470",
        "Address 1": "50 BOSTON TURNPIKE RD",
        "Address 2": "",
        "City": "SHREWBURY",
        "STATE": "MA",
        "Zip": "01545",
        "Phone": "5083630057",
        "pid": 93114
      },
      {
        "Provider": null,
        "Name": "OSCO PHARMACY",
        "Store ID": "7624",
        "Address 1": "14 W BOYLSTON ST",
        "Address 2": "",
        "City": "WORCESTER",
        "STATE": "MA",
        "Zip": "01605",
        "Phone": "5088525344",
        "pid": 93125
      },
      {
        "Provider": null,
        "Name": "OSCO PHARMACY",
        "Store ID": "7550",
        "Address 1": "600 CENTER ST",
        "Address 2": "",
        "City": "AUBURN",
        "STATE": "ME",
        "Zip": "04210",
        "Phone": "2077838951",
        "pid": 93251
      },
      {
        "Provider": null,
        "Name": "OSCO PHARMACY",
        "Store ID": "7559",
        "Address 1": "27 EAST AVE",
        "Address 2": "",
        "City": "LEWISTON",
        "STATE": "ME",
        "Zip": "04240",
        "Phone": "2077846666",
        "pid": 93252
      },
      {
        "Provider": null,
        "Name": "OSCO PHARMACY",
        "Store ID": "7628",
        "Address 1": "147 BATH RD",
        "Address 2": "",
        "City": "BRUNSWICK",
        "STATE": "ME",
        "Zip": "04011",
        "Phone": "2077210900",
        "pid": 93260
      },
      {
        "Provider": null,
        "Name": "OSCO PHARMACY",
        "Store ID": "7608",
        "Address 1": "200 LOWER MAIN ST",
        "Address 2": "",
        "City": "FREEPORT",
        "STATE": "ME",
        "Zip": "04032",
        "Phone": "2078650205",
        "pid": 93262
      },
      {
        "Provider": null,
        "Name": "OSCO PHARMACY",
        "Store ID": "7547",
        "Address 1": "417 PAYNE RD",
        "Address 2": "",
        "City": "SCARBOROUGH",
        "STATE": "ME",
        "Zip": "04074",
        "Phone": "2075103005",
        "pid": 93265
      },
      {
        "Provider": null,
        "Name": "OSCO PHARMACY",
        "Store ID": "7623",
        "Address 1": "31 MAIN ST",
        "Address 2": "",
        "City": "WESTBROOK",
        "STATE": "ME",
        "Zip": "04092",
        "Phone": "2078579298",
        "pid": 93266
      },
      {
        "Provider": null,
        "Name": "OSCO PHARMACY",
        "Store ID": "7557",
        "Address 1": "175 HIGH ST",
        "Address 2": "",
        "City": "ELLSWORTH",
        "STATE": "ME",
        "Zip": "04605",
        "Phone": "2076693005",
        "pid": 93269
      },
      {
        "Provider": null,
        "Name": "OSCO PHARMACY",
        "Store ID": "7551",
        "Address 1": "251 KENNEDY MEMORIAL DR",
        "Address 2": "",
        "City": "WATERVILLE",
        "STATE": "ME",
        "Zip": "04901",
        "Phone": "2076803001",
        "pid": 93272
      },
      {
        "Provider": null,
        "Name": "OSCO PHARMACY",
        "Store ID": "7548",
        "Address 1": "235 CAMDEN ST",
        "Address 2": "",
        "City": "ROCKLAND",
        "STATE": "ME",
        "Zip": "04841",
        "Phone": "2075948070",
        "pid": 93273
      },
      {
        "Provider": null,
        "Name": "OSCO PHARMACY",
        "Store ID": "7626",
        "Address 1": "4 SCAMMON ST",
        "Address 2": "SUITE 12",
        "City": "SACO",
        "STATE": "ME",
        "Zip": "04072",
        "Phone": "2072849955",
        "pid": 93285
      },
      {
        "Provider": null,
        "Name": "OSCO PHARMACY",
        "Store ID": "7560",
        "Address 1": "1364 MAIN ST",
        "Address 2": "",
        "City": "SANFORD",
        "STATE": "ME",
        "Zip": "04073",
        "Phone": "2074903562",
        "pid": 93286
      },
      {
        "Provider": null,
        "Name": "OSCO PHARMACY",
        "Store ID": "7502",
        "Address 1": "1400 LAKESHORE DR",
        "Address 2": "",
        "City": "GILFORD",
        "STATE": "NH",
        "Zip": "03249",
        "Phone": "6035245240",
        "pid": 94326
      },
      {
        "Provider": null,
        "Name": "OSCO PHARMACY",
        "Store ID": "7501",
        "Address 1": "625 MEADOW ST",
        "Address 2": "",
        "City": "LITTLETON",
        "STATE": "NH",
        "Zip": "03561",
        "Phone": "6034446673",
        "pid": 94334
      },
      {
        "Provider": null,
        "Name": "OSCO PHARMACY",
        "Store ID": "7514",
        "Address 1": "276 W MAIN ST",
        "Address 2": "",
        "City": "HILLSBOROUGH",
        "STATE": "NH",
        "Zip": "03244",
        "Phone": "6034644133",
        "pid": 94336
      },
      {
        "Provider": null,
        "Name": "OSCO PHARMACY",
        "Store ID": "7505",
        "Address 1": "570 DANIEL WEBSTER HWY",
        "Address 2": "",
        "City": "MERRIMACK",
        "STATE": "NH",
        "Zip": "03054",
        "Phone": "6034244519",
        "pid": 94338
      },
      {
        "Provider": null,
        "Name": "OSCO PHARMACY",
        "Store ID": "7678",
        "Address 1": "7 CONTINENTAL BLVD",
        "Address 2": "",
        "City": "MERRIMACK",
        "STATE": "NH",
        "Zip": "03054",
        "Phone": "6034290759",
        "pid": 94339
      },
      {
        "Provider": null,
        "Name": "OSCO PHARMACY",
        "Store ID": "7511",
        "Address 1": "246 LOUDON RD",
        "Address 2": "",
        "City": "CONCORD",
        "STATE": "NH",
        "Zip": "03301",
        "Phone": "6032282279",
        "pid": 94345
      },
      {
        "Provider": null,
        "Name": "OSCO PHARMACY",
        "Store ID": "7483",
        "Address 1": "55 CRYSTAL AVE",
        "Address 2": "",
        "City": "DERRY",
        "STATE": "NH",
        "Zip": "03038",
        "Phone": "6034379654",
        "pid": 94348
      },
      {
        "Provider": null,
        "Name": "OSCO PHARMACY",
        "Store ID": "7484",
        "Address 1": "RT 102 OLD ORCHARD VIEW DR",
        "Address 2": "",
        "City": "LONDONDERRY",
        "STATE": "NH",
        "Zip": "03053",
        "Phone": "6034376933",
        "pid": 94351
      },
      {
        "Provider": null,
        "Name": "OSCO PHARMACY",
        "Store ID": "7621",
        "Address 1": "100 SHAWS LN",
        "Address 2": "",
        "City": "STRATHAM",
        "STATE": "NH",
        "Zip": "03885",
        "Phone": "6037735992",
        "pid": 94356
      },
      {
        "Provider": null,
        "Name": "OSCO PHARMACY",
        "Store ID": "7686",
        "Address 1": "43 INDIAN ROCK RD",
        "Address 2": "",
        "City": "WINDHAM",
        "STATE": "NH",
        "Zip": "03087",
        "Phone": "6034373481",
        "pid": 94357
      },
      {
        "Provider": null,
        "Name": "OSCO PHARMACY",
        "Store ID": "7629",
        "Address 1": "1073 W MAIN ST",
        "Address 2": "SUITE 9",
        "City": "DOVER FOXCROFT",
        "STATE": "ME",
        "Zip": "04426",
        "Phone": "2075642857",
        "pid": 30799
      },
      {
        "Provider": null,
        "Name": "OSCO PHARMACY",
        "Store ID": "7556",
        "Address 1": "353 MAIN ST",
        "Address 2": "",
        "City": "BANGOR",
        "STATE": "ME",
        "Zip": "04401",
        "Phone": "2079456550",
        "pid": 30826
      },
      {
        "Provider": null,
        "Name": "OSCO PHARMACY",
        "Store ID": "7552",
        "Address 1": "150 WESTERN AVE",
        "Address 2": "",
        "City": "AUGUSTA",
        "STATE": "ME",
        "Zip": "04330",
        "Phone": "2076260364",
        "pid": 30832
      },
      {
        "Provider": null,
        "Name": "OSCO PHARMACY",
        "Store ID": "7443",
        "Address 1": "15 SMITHFIELD RD ADMIRAL PLZ",
        "Address 2": "",
        "City": "NORTH PROVIDENCE",
        "STATE": "RI",
        "Zip": "02904",
        "Phone": "4013534075",
        "pid": 62092
      },
      {
        "Provider": null,
        "Name": "OSCO PHARMACY",
        "Store ID": "7515",
        "Address 1": "66 MOUNTAIN VIEW DR",
        "Address 2": "",
        "City": "COLCHESTER",
        "STATE": "VT",
        "Zip": "05446",
        "Phone": "8026552536",
        "pid": 96788
      },
      {
        "Provider": null,
        "Name": "OSCO PHARMACY",
        "Store ID": "7517",
        "Address 1": "570 SHELBURNE RD",
        "Address 2": "",
        "City": "BURLINGTON",
        "STATE": "VT",
        "Zip": "05401",
        "Phone": "8028603311",
        "pid": 96790
      },
      {
        "Provider": null,
        "Name": "OSCO PHARMACY",
        "Store ID": "7518",
        "Address 1": "71 BOXWOOD ST",
        "Address 2": "",
        "City": "WILLISTON",
        "STATE": "VT",
        "Zip": "05495",
        "Phone": "8028789056",
        "pid": 96792
      },
      {
        "Provider": null,
        "Name": "OSCO PHARMACY",
        "Store ID": "7516",
        "Address 1": "PAINE TURNPIKE N",
        "Address 2": "",
        "City": "BERLIN CORNERS",
        "STATE": "VT",
        "Zip": "05602",
        "Phone": "8022238599",
        "pid": 96802
      },
      {
        "Provider": null,
        "Name": "OSCO PHARMACY",
        "Store ID": "7649",
        "Address 1": "820 WATERBURY STOWE RD",
        "Address 2": "",
        "City": "WATERBURY",
        "STATE": "VT",
        "Zip": "05676",
        "Phone": "8022414115",
        "pid": 96803
      },
      {
        "Provider": null,
        "Name": "OSCO PHARMACY",
        "Store ID": "7541",
        "Address 1": "BURN ST NORTHGATE SHOPPING CTR",
        "Address 2": "",
        "City": "PORTLAND",
        "STATE": "ME",
        "Zip": "04103",
        "Phone": "2077970536",
        "pid": 117131
      },
      {
        "Provider": null,
        "Name": "OSCO PHARMACY",
        "Store ID": "7565",
        "Address 1": "699 MT AUBURN ST",
        "Address 2": "",
        "City": "CAMBRIDGE",
        "STATE": "MA",
        "Zip": "02138",
        "Phone": "6176619337",
        "pid": 33137
      },
      {
        "Provider": null,
        "Name": "OSCO PHARMACY",
        "Store ID": "7577",
        "Address 1": "75 SPRING ST",
        "Address 2": "",
        "City": "WEST ROXBURY",
        "STATE": "MA",
        "Zip": "02132",
        "Phone": "6173279360",
        "pid": 33139
      },
      {
        "Provider": null,
        "Name": "OSCO PHARMACY",
        "Store ID": "7578",
        "Address 1": "43 STATE ST",
        "Address 2": "",
        "City": "LYNN",
        "STATE": "MA",
        "Zip": "01901",
        "Phone": "7815969625",
        "pid": 33140
      },
      {
        "Provider": null,
        "Name": "OSCO PHARMACY",
        "Store ID": "7579",
        "Address 1": "1377 HYDE PARK AVE",
        "Address 2": "",
        "City": "HYDE PARK",
        "STATE": "MA",
        "Zip": "02136",
        "Phone": "6173643161",
        "pid": 33141
      },
      {
        "Provider": null,
        "Name": "OSCO PHARMACY",
        "Store ID": "7581",
        "Address 1": "255 E CENTRAL ST",
        "Address 2": "",
        "City": "FRANKLIN",
        "STATE": "MA",
        "Zip": "02038",
        "Phone": "5085207017",
        "pid": 33142
      },
      {
        "Provider": null,
        "Name": "OSCO PHARMACY",
        "Store ID": "7583",
        "Address 1": "535 TRAPELO RD",
        "Address 2": "",
        "City": "BELMONT",
        "STATE": "MA",
        "Zip": "02478",
        "Phone": "6174896542",
        "pid": 33143
      },
      {
        "Provider": null,
        "Name": "OSCO PHARMACY",
        "Store ID": "7585",
        "Address 1": "2260 STATE RD",
        "Address 2": "",
        "City": "PLYMOUTH",
        "STATE": "MA",
        "Zip": "02360",
        "Phone": "5088338819",
        "pid": 33144
      },
      {
        "Provider": null,
        "Name": "OSCO PHARMACY",
        "Store ID": "7429",
        "Address 1": "641 BELMONT ST",
        "Address 2": "",
        "City": "BROCKTON",
        "STATE": "MA",
        "Zip": "02301",
        "Phone": "5085848520",
        "pid": 33172
      },
      {
        "Provider": null,
        "Name": "OSCO PHARMACY",
        "Store ID": "7588",
        "Address 1": "1065 COMMONWEALTH AVE",
        "Address 2": "",
        "City": "BOSTON",
        "STATE": "MA",
        "Zip": "02215",
        "Phone": "6177824585",
        "pid": 33217
      },
      {
        "Provider": null,
        "Name": "OSCO PHARMACY",
        "Store ID": "7572",
        "Address 1": "370 WESTERN AVE",
        "Address 2": "",
        "City": "BRIGHTON",
        "STATE": "MA",
        "Zip": "02135",
        "Phone": "6177821628",
        "pid": 33276
      },
      {
        "Provider": null,
        "Name": "OSCO PHARMACY",
        "Store ID": "7587",
        "Address 1": "45 MORRISSEY BLVD",
        "Address 2": "",
        "City": "DORCHESTER",
        "STATE": "MA",
        "Zip": "02124",
        "Phone": "6172657911",
        "pid": 33285
      },
      {
        "Provider": null,
        "Name": "OSCO PHARMACY",
        "Store ID": "7584",
        "Address 1": "155 GREAT RD",
        "Address 2": "",
        "City": "STOW",
        "STATE": "MA",
        "Zip": "01775",
        "Phone": "9788971736",
        "pid": 33314
      },
      {
        "Provider": null,
        "Name": "OSCO PHARMACY",
        "Store ID": "7409",
        "Address 1": "476 LIBERTY ST",
        "Address 2": "",
        "City": "HANSON",
        "STATE": "MA",
        "Zip": "02341",
        "Phone": "7812930561",
        "pid": 33369
      },
      {
        "Provider": null,
        "Name": "OSCO PHARMACY",
        "Store ID": "7513",
        "Address 1": "300 MAIN ST",
        "Address 2": "",
        "City": "NASHUA",
        "STATE": "NH",
        "Zip": "03060",
        "Phone": "6035795445",
        "pid": 41827
      },
      {
        "Provider": null,
        "Name": "OSCO PHARMACY",
        "Store ID": "7503",
        "Address 1": "1150 EASTMAN RD",
        "Address 2": "",
        "City": "CENTER CONWAY",
        "STATE": "NH",
        "Zip": "03813",
        "Phone": "6033565888",
        "pid": 41891
      },
      {
        "Provider": null,
        "Name": "OSCO PHARMACY #3118",
        "Store ID": "3118",
        "Address 1": "1309 N SECOND",
        "Address 2": "",
        "City": "CLINTON",
        "STATE": "IA",
        "Zip": "52732",
        "Phone": "5632436641",
        "pid": 25832
      },
      {
        "Provider": null,
        "Name": "SAV ON PHARMACY",
        "Store ID": "7735",
        "Address 1": "101 BYERS DRIVE",
        "Address 2": "",
        "City": "GLEN MILLS",
        "STATE": "PA",
        "Zip": "19342",
        "Phone": "6103619523",
        "pid": 95704
      },
      {
        "Provider": null,
        "Name": "SAVON PHARMACY",
        "Store ID": "7862",
        "Address 1": "101 BIG ELK MALL",
        "Address 2": "",
        "City": "ELKTON",
        "STATE": "MD",
        "Zip": "21921",
        "Phone": "4106200602",
        "pid": 31783
      },
      {
        "Provider": null,
        "Name": "SAVON PHARMACY",
        "Store ID": "7817",
        "Address 1": "146 FOX HUNT DR ROUTE 40",
        "Address 2": "",
        "City": "BEAR",
        "STATE": "DE",
        "Zip": "19701",
        "Phone": "3028369387",
        "pid": 12899
      },
      {
        "Provider": null,
        "Name": "SAVON PHARMACY",
        "Store ID": "7822",
        "Address 1": "1001 N DUPONT HWY RT 13",
        "Address 2": "",
        "City": "DOVER",
        "STATE": "DE",
        "Zip": "19901",
        "Phone": "3026748376",
        "pid": 12900
      },
      {
        "Provider": null,
        "Name": "SAVON PHARMACY",
        "Store ID": "7828",
        "Address 1": "128 LANTANA DR",
        "Address 2": "",
        "City": "HOCKESSIN",
        "STATE": "DE",
        "Zip": "19707",
        "Phone": "3022349004",
        "pid": 12906
      },
      {
        "Provider": null,
        "Name": "SAVON PHARMACY",
        "Store ID": "7806",
        "Address 1": "100 SUBURBAN DR",
        "Address 2": "",
        "City": "NEWARK",
        "STATE": "DE",
        "Zip": "19711",
        "Phone": "3024532335",
        "pid": 12913
      },
      {
        "Provider": null,
        "Name": "SAVON PHARMACY",
        "Store ID": "7872",
        "Address 1": "1308 CENTERVILLE RD",
        "Address 2": "",
        "City": "WILMINGTON",
        "STATE": "DE",
        "Zip": "19808",
        "Phone": "3029943848",
        "pid": 12931
      },
      {
        "Provider": null,
        "Name": "SAVON PHARMACY",
        "Store ID": "7836",
        "Address 1": "236 E GLENWOOD AVE",
        "Address 2": "",
        "City": "SMYRNA",
        "STATE": "DE",
        "Zip": "19977",
        "Phone": "3026533610",
        "pid": 12985
      },
      {
        "Provider": null,
        "Name": "SAVON PHARMACY",
        "Store ID": "7816",
        "Address 1": "460 E MAIN ST",
        "Address 2": "",
        "City": "MIDDLETOWN",
        "STATE": "DE",
        "Zip": "19709",
        "Phone": "3024491868",
        "pid": 12991
      },
      {
        "Provider": null,
        "Name": "SAVON PHARMACY",
        "Store ID": "7730",
        "Address 1": "851 GAP NEWPORT PIKE",
        "Address 2": "",
        "City": "AVONDALE",
        "STATE": "PA",
        "Zip": "19311",
        "Phone": "6102688578",
        "pid": 95650
      },
      {
        "Provider": null,
        "Name": "SAVON PHARMACY",
        "Store ID": "7852",
        "Address 1": "4454 BLACK HORSE PIKE",
        "Address 2": "",
        "City": "MAYS LANDING",
        "STATE": "NJ",
        "Zip": "08330",
        "Phone": "6096255012",
        "pid": 43075
      },
      {
        "Provider": null,
        "Name": "SAVON PHARMACY",
        "Store ID": "7835",
        "Address 1": "2087 SHORE RD",
        "Address 2": "",
        "City": "OCEAN VIEW",
        "STATE": "NJ",
        "Zip": "08230",
        "Phone": "6096249041",
        "pid": 43078
      },
      {
        "Provider": null,
        "Name": "SAVON PHARMACY",
        "Store ID": "7855",
        "Address 1": "3845 BAYSHORE RD",
        "Address 2": "",
        "City": "NORTH CAPE MAY",
        "STATE": "NJ",
        "Zip": "08204",
        "Phone": "6098841761",
        "pid": 43086
      },
      {
        "Provider": null,
        "Name": "SAVON PHARMACY",
        "Store ID": "7919",
        "Address 1": "953 ROUTE 33",
        "Address 2": "",
        "City": "HAMILTON SQUARE",
        "STATE": "NJ",
        "Zip": "08690",
        "Phone": "6098902846",
        "pid": 43368
      },
      {
        "Provider": null,
        "Name": "SAVON PHARMACY",
        "Store ID": "7926",
        "Address 1": "2091 ROUTE 130 N",
        "Address 2": "",
        "City": "WILLINGBORO",
        "STATE": "NJ",
        "Zip": "08046",
        "Phone": "6098711310",
        "pid": 43369
      },
      {
        "Provider": null,
        "Name": "SAVON PHARMACY",
        "Store ID": "7970",
        "Address 1": "631 MANTUA AVE",
        "Address 2": "",
        "City": "WOODBURY",
        "STATE": "NJ",
        "Zip": "08096",
        "Phone": "8568483129",
        "pid": 43397
      },
      {
        "Provider": null,
        "Name": "SAVON PHARMACY",
        "Store ID": "7831",
        "Address 1": "212 NEW RD",
        "Address 2": "",
        "City": "SOMERS POINT",
        "STATE": "NJ",
        "Zip": "08244",
        "Phone": "6096538343",
        "pid": 43449
      },
      {
        "Provider": null,
        "Name": "SAVON PHARMACY",
        "Store ID": "7994",
        "Address 1": "415 EGG HARBOR RD",
        "Address 2": "",
        "City": "SEWELL",
        "STATE": "NJ",
        "Zip": "08080",
        "Phone": "8562568872",
        "pid": 43532
      },
      {
        "Provider": null,
        "Name": "SAVON PHARMACY",
        "Store ID": "7982",
        "Address 1": "531 HIGH ST FAIRGROUND PLZ",
        "Address 2": "",
        "City": "MOUNT HOLLY",
        "STATE": "NJ",
        "Zip": "08060",
        "Phone": "6097021784",
        "pid": 43534
      },
      {
        "Provider": null,
        "Name": "SAVON PHARMACY",
        "Store ID": "7998",
        "Address 1": "501 E EVESHAM RD",
        "Address 2": "",
        "City": "RUNNEMEDE",
        "STATE": "NJ",
        "Zip": "08070",
        "Phone": "8569399107",
        "pid": 43535
      },
      {
        "Provider": null,
        "Name": "SAVON PHARMACY",
        "Store ID": "7908",
        "Address 1": "18 BROADWAY",
        "Address 2": "",
        "City": "BROWNS MILLS",
        "STATE": "NJ",
        "Zip": "08015",
        "Phone": "6097351540",
        "pid": 43568
      },
      {
        "Provider": null,
        "Name": "SAVON PHARMACY",
        "Store ID": "7890",
        "Address 1": "11 S DENNIS RD",
        "Address 2": "",
        "City": "CAPE MAY CT HOUSE",
        "STATE": "NJ",
        "Zip": "08210",
        "Phone": "6094639037",
        "pid": 43601
      },
      {
        "Provider": null,
        "Name": "SAVON PHARMACY",
        "Store ID": "7833",
        "Address 1": "301 S MAIN RD",
        "Address 2": "",
        "City": "VINELAND",
        "STATE": "NJ",
        "Zip": "08360",
        "Phone": "8565071109",
        "pid": 43634
      },
      {
        "Provider": null,
        "Name": "SAVON PHARMACY",
        "Store ID": "7964",
        "Address 1": "175 ROUTE 70 SHARP RUN PLZ",
        "Address 2": "",
        "City": "MEDFORD",
        "STATE": "NJ",
        "Zip": "08055",
        "Phone": "6099537692",
        "pid": 43643
      },
      {
        "Provider": null,
        "Name": "SAVON PHARMACY",
        "Store ID": "7992",
        "Address 1": "700 HADDONFIELD BERLIN RD",
        "Address 2": "",
        "City": "VOORHEES",
        "STATE": "NJ",
        "Zip": "08043",
        "Phone": "8567821167",
        "pid": 43655
      },
      {
        "Provider": null,
        "Name": "SAVON PHARMACY",
        "Store ID": "7995",
        "Address 1": "251 N BROADWAY",
        "Address 2": "",
        "City": "PENNSVILLE",
        "STATE": "NJ",
        "Zip": "08070",
        "Phone": "8566784378",
        "pid": 43714
      },
      {
        "Provider": null,
        "Name": "SAVON PHARMACY",
        "Store ID": "7932",
        "Address 1": "616 NEWMAN SPRINGS RD",
        "Address 2": "",
        "City": "LINCROFT",
        "STATE": "NJ",
        "Zip": "07738",
        "Phone": "7329360558",
        "pid": 43846
      },
      {
        "Provider": null,
        "Name": "SAVON PHARMACY",
        "Store ID": "7961",
        "Address 1": "260 DUNNS MILL RD",
        "Address 2": "",
        "City": "BORDENTOWN",
        "STATE": "NJ",
        "Zip": "08505",
        "Phone": "6093242820",
        "pid": 43911
      },
      {
        "Provider": null,
        "Name": "SAVON PHARMACY",
        "Store ID": "7931",
        "Address 1": "100 N BLACKHORSE PIKE",
        "Address 2": "",
        "City": "AUDUBON",
        "STATE": "NJ",
        "Zip": "081061950",
        "Phone": "8566162484",
        "pid": 43930
      },
      {
        "Provider": null,
        "Name": "SAVON PHARMACY",
        "Store ID": "7963",
        "Address 1": "KINGS HWY AND LENOLA RD",
        "Address 2": "",
        "City": "MAPLE SHADE",
        "STATE": "NJ",
        "Zip": "08052",
        "Phone": "8567781049",
        "pid": 43953
      },
      {
        "Provider": null,
        "Name": "SAVON PHARMACY",
        "Store ID": "7920",
        "Address 1": "857 ROUTE 45",
        "Address 2": "",
        "City": "PILESGROVE",
        "STATE": "NJ",
        "Zip": "08098",
        "Phone": "8567698655",
        "pid": 43955
      },
      {
        "Provider": null,
        "Name": "SAVON PHARMACY",
        "Store ID": "7924",
        "Address 1": "329 SPEEDWELL AVE",
        "Address 2": "",
        "City": "MORRIS PLAINS",
        "STATE": "NJ",
        "Zip": "07950",
        "Phone": "9739849671",
        "pid": 43977
      },
      {
        "Provider": null,
        "Name": "SAVON PHARMACY",
        "Store ID": "7858",
        "Address 1": "425 US HWY 9",
        "Address 2": "",
        "City": "TUCKERTON",
        "STATE": "NJ",
        "Zip": "08087",
        "Phone": "6092960612",
        "pid": 43991
      },
      {
        "Provider": null,
        "Name": "SAVON PHARMACY",
        "Store ID": "7914",
        "Address 1": "4400 S BROAD ST",
        "Address 2": "",
        "City": "YARDVILLE",
        "STATE": "NJ",
        "Zip": "08620",
        "Phone": "6098889854",
        "pid": 44004
      },
      {
        "Provider": null,
        "Name": "SAVON PHARMACY",
        "Store ID": "7927",
        "Address 1": "690 MILLBROOK AVE",
        "Address 2": "",
        "City": "RANDOLPH",
        "STATE": "NJ",
        "Zip": "07869",
        "Phone": "9738952694",
        "pid": 44018
      },
      {
        "Provider": null,
        "Name": "SAVON PHARMACY",
        "Store ID": "7943",
        "Address 1": "1619 CENTER SQUARE RD",
        "Address 2": "",
        "City": "SWEDESBORO",
        "STATE": "NJ",
        "Zip": "08085",
        "Phone": "8564678198",
        "pid": 44022
      },
      {
        "Provider": null,
        "Name": "SAVON PHARMACY",
        "Store ID": "7956",
        "Address 1": "515 BERLIN CROSS KEYS RD",
        "Address 2": "",
        "City": "SICKLERVILLE",
        "STATE": "NJ",
        "Zip": "08081",
        "Phone": "8567282189",
        "pid": 44026
      },
      {
        "Provider": null,
        "Name": "SAVON PHARMACY",
        "Store ID": "7784",
        "Address 1": "422 N MAIN ST",
        "Address 2": "",
        "City": "DOYLESTOWN",
        "STATE": "PA",
        "Zip": "18901",
        "Phone": "2153401983",
        "pid": 59092
      },
      {
        "Provider": null,
        "Name": "SAVON PHARMACY",
        "Store ID": "7721",
        "Address 1": "785 STARR ST",
        "Address 2": "",
        "City": "PHOENIXVILLE",
        "STATE": "PA",
        "Zip": "19460",
        "Phone": "6109357791",
        "pid": 59094
      },
      {
        "Provider": null,
        "Name": "SAVON PHARMACY",
        "Store ID": "7704",
        "Address 1": "6601 ROOSEVELT BLVD",
        "Address 2": "",
        "City": "PHILADELPHIA",
        "STATE": "PA",
        "Zip": "19149",
        "Phone": "2153386601",
        "pid": 59095
      },
      {
        "Provider": null,
        "Name": "SAVON PHARMACY",
        "Store ID": "7767",
        "Address 1": "3951 LINCOLN HWY",
        "Address 2": "",
        "City": "DOWNINGTON",
        "STATE": "PA",
        "Zip": "19335",
        "Phone": "6108738589",
        "pid": 59499
      },
      {
        "Provider": null,
        "Name": "SAVON PHARMACY",
        "Store ID": "7756",
        "Address 1": "320 W DEKALB PIKE",
        "Address 2": "",
        "City": "KING OF PRUSSIA",
        "STATE": "PA",
        "Zip": "19406",
        "Phone": "6107684105",
        "pid": 59713
      },
      {
        "Provider": null,
        "Name": "SAVON PHARMACY",
        "Store ID": "7882",
        "Address 1": "907 PAOLI PIKE",
        "Address 2": "",
        "City": "WEST CHESTER",
        "STATE": "PA",
        "Zip": "19380",
        "Phone": "6104316270",
        "pid": 59894
      },
      {
        "Provider": null,
        "Name": "SAVON PHARMACY",
        "Store ID": "7796",
        "Address 1": "5300 BALTIMORE PIKE",
        "Address 2": "",
        "City": "CLIFTON HEIGHTS",
        "STATE": "PA",
        "Zip": "19018",
        "Phone": "6102846803",
        "pid": 60031
      },
      {
        "Provider": null,
        "Name": "SAVON PHARMACY",
        "Store ID": "7787",
        "Address 1": "6640 OXFORD AVE",
        "Address 2": "",
        "City": "PHILADELPHIA",
        "STATE": "PA",
        "Zip": "19111",
        "Phone": "2157259319",
        "pid": 60042
      },
      {
        "Provider": null,
        "Name": "SAVON PHARMACY",
        "Store ID": "7977",
        "Address 1": "6800 NEW FALLS RD",
        "Address 2": "",
        "City": "LEVITTOWN",
        "STATE": "PA",
        "Zip": "19057",
        "Phone": "2159461597",
        "pid": 60048
      },
      {
        "Provider": null,
        "Name": "SAVON PHARMACY",
        "Store ID": "7769",
        "Address 1": "323 OLD YORK RD",
        "Address 2": "",
        "City": "JENKINTOWN",
        "STATE": "PA",
        "Zip": "19046",
        "Phone": "2158866925",
        "pid": 60221
      },
      {
        "Provider": null,
        "Name": "SAVON PHARMACY",
        "Store ID": "7739",
        "Address 1": "105 E ST RD",
        "Address 2": "",
        "City": "FEASTERVILLE",
        "STATE": "PA",
        "Zip": "19053",
        "Phone": "2159424894",
        "pid": 60263
      },
      {
        "Provider": null,
        "Name": "SAVON PHARMACY",
        "Store ID": "7747",
        "Address 1": "920 RED LION RD",
        "Address 2": "",
        "City": "PHILADELPHIA",
        "STATE": "PA",
        "Zip": "19115",
        "Phone": "2156766279",
        "pid": 60264
      },
      {
        "Provider": null,
        "Name": "SAVON PHARMACY",
        "Store ID": "7749",
        "Address 1": "1150 W MAIN ST",
        "Address 2": "",
        "City": "LANSDALE",
        "STATE": "PA",
        "Zip": "19446",
        "Phone": "2153617177",
        "pid": 60292
      },
      {
        "Provider": null,
        "Name": "SAVON PHARMACY",
        "Store ID": "7789",
        "Address 1": "STATE RD AND LANSDOWNE AVE",
        "Address 2": "",
        "City": "UPPER DARBY",
        "STATE": "PA",
        "Zip": "19082",
        "Phone": "6107895700",
        "pid": 60293
      },
      {
        "Provider": null,
        "Name": "SAVON PHARMACY",
        "Store ID": "7792",
        "Address 1": "39 LEOPARD RD",
        "Address 2": "",
        "City": "PAOLI",
        "STATE": "PA",
        "Zip": "19301",
        "Phone": "6102400110",
        "pid": 60430
      },
      {
        "Provider": null,
        "Name": "SAVON PHARMACY",
        "Store ID": "7893",
        "Address 1": "124 MORTON AVE",
        "Address 2": "",
        "City": "FOLSOM",
        "STATE": "PA",
        "Zip": "19033",
        "Phone": "6102373810",
        "pid": 60431
      },
      {
        "Provider": null,
        "Name": "SAVON PHARMACY",
        "Store ID": "7719",
        "Address 1": "2301 BRISTOL RD",
        "Address 2": "",
        "City": "CORNWELLS HEIGHTS",
        "STATE": "PA",
        "Zip": "19020",
        "Phone": "2157419772",
        "pid": 60452
      },
      {
        "Provider": null,
        "Name": "SAVON PHARMACY",
        "Store ID": "7723",
        "Address 1": "1640 BETHLEHEM PIKE",
        "Address 2": "",
        "City": "FLOURTOWN",
        "STATE": "PA",
        "Zip": "19031",
        "Phone": "2158367201",
        "pid": 60457
      },
      {
        "Provider": null,
        "Name": "SAVON PHARMACY",
        "Store ID": "7779",
        "Address 1": "100 WOODHAVEN MALL",
        "Address 2": "",
        "City": "CORNWELLS HEIGHTS",
        "STATE": "PA",
        "Zip": "19020",
        "Phone": "2156387135",
        "pid": 60536
      },
      {
        "Provider": null,
        "Name": "SAVON PHARMACY",
        "Store ID": "7762",
        "Address 1": "5927 RIDGE AVE",
        "Address 2": "",
        "City": "PHILADELPHIA",
        "STATE": "PA",
        "Zip": "19128",
        "Phone": "2154873419",
        "pid": 60557
      },
      {
        "Provider": null,
        "Name": "SAVON PHARMACY",
        "Store ID": "7876",
        "Address 1": "1067 W BALTIMORE PIKE",
        "Address 2": "",
        "City": "MEDIA",
        "STATE": "PA",
        "Zip": "19063",
        "Phone": "6106270521",
        "pid": 60575
      },
      {
        "Provider": null,
        "Name": "SAVON PHARMACY",
        "Store ID": "7726",
        "Address 1": "1400 E PASSYUNK AVE",
        "Address 2": "",
        "City": "PHILADELPHIA",
        "STATE": "PA",
        "Zip": "19147",
        "Phone": "2155513321",
        "pid": 60631
      },
      {
        "Provider": null,
        "Name": "SAVON PHARMACY",
        "Store ID": "7711",
        "Address 1": "121 E CITYLINE AVE",
        "Address 2": "",
        "City": "BALA CYNWYD",
        "STATE": "PA",
        "Zip": "19004",
        "Phone": "6106677051",
        "pid": 60638
      },
      {
        "Provider": null,
        "Name": "SAVON PHARMACY",
        "Store ID": "7913",
        "Address 1": "48 WEST RD",
        "Address 2": "",
        "City": "NEWTOWN",
        "STATE": "PA",
        "Zip": "18940",
        "Phone": "2155045512",
        "pid": 60651
      },
      {
        "Provider": null,
        "Name": "SAVON PHARMACY",
        "Store ID": "7770",
        "Address 1": "503 S MACDADE BLVD",
        "Address 2": "",
        "City": "HOLMES",
        "STATE": "PA",
        "Zip": "19043",
        "Phone": "6105862096",
        "pid": 60666
      },
      {
        "Provider": null,
        "Name": "SAVON PHARMACY",
        "Store ID": "7725",
        "Address 1": "8200 ROOSEVELT BLVD",
        "Address 2": "",
        "City": "PHILADELPHIA",
        "STATE": "PA",
        "Zip": "19152",
        "Phone": "2153384967",
        "pid": 60686
      },
      {
        "Provider": null,
        "Name": "SAVON PHARMACY",
        "Store ID": "7798",
        "Address 1": "567 SPROUL RD",
        "Address 2": "",
        "City": "BROOMALL",
        "STATE": "PA",
        "Zip": "19008",
        "Phone": "6103563504",
        "pid": 60690
      },
      {
        "Provider": null,
        "Name": "SAVON PHARMACY",
        "Store ID": "7703",
        "Address 1": "400 SIMPSON DR",
        "Address 2": "",
        "City": "CHESTER SPRINGS",
        "STATE": "PA",
        "Zip": "19425",
        "Phone": "6104585275",
        "pid": 60691
      },
      {
        "Provider": null,
        "Name": "SAVON PHARMACY",
        "Store ID": "7727",
        "Address 1": "2775 W MAIN ST",
        "Address 2": "",
        "City": "NORRISTOWN",
        "STATE": "PA",
        "Zip": "19403",
        "Phone": "6106300882",
        "pid": 60693
      },
      {
        "Provider": null,
        "Name": "SAVON PHARMACY",
        "Store ID": "7753",
        "Address 1": "700 W LANCASTER AVE",
        "Address 2": "",
        "City": "WAYNE",
        "STATE": "PA",
        "Zip": "19087",
        "Phone": "6103410951",
        "pid": 60695
      },
      {
        "Provider": null,
        "Name": "SAVON PHARMACY",
        "Store ID": "7809",
        "Address 1": "527 E BALTIMORE PIKE",
        "Address 2": "",
        "City": "MEDIA",
        "STATE": "PA",
        "Zip": "19063",
        "Phone": "6105650657",
        "pid": 60696
      },
      {
        "Provider": null,
        "Name": "SAVON PHARMACY",
        "Store ID": "7715",
        "Address 1": "1901 JOHNSTON ST",
        "Address 2": "",
        "City": "PHILADELPHIA",
        "STATE": "PA",
        "Zip": "19145",
        "Phone": "2153365553",
        "pid": 60706
      },
      {
        "Provider": null,
        "Name": "SAVON PHARMACY",
        "Store ID": "7714",
        "Address 1": "7010 GERMANTOWN AVE",
        "Address 2": "",
        "City": "PHILADELPHIA",
        "STATE": "PA",
        "Zip": "19119",
        "Phone": "2152474995",
        "pid": 60718
      }
    ]
  }
}
